{
"type": "FeatureCollection",
"name": "fort_school_data",
"crs": { "type": "name", "properties": { "name": "urn:ogc:def:crs:OGC:1.3:CRS84" } },
"features": [
{ "type": "Feature", "properties": { "fid": 1, "name": "Seraph Angels Infant Centre", "amenity": "other", "operator:type": null, "addr:city": null, "source": null, "osm_id": 5226400472, "osm_type": "nodes" }, "geometry": { "type": "Point", "coordinates": [ 30.3014148, 0.6517069 ] } },
{ "type": "Feature", "properties": { "fid": 2, "name": "Kamengo Primary School", "amenity": "primary school", "operator:type": "public", "addr:city": "Kamengo A", "source": "www.ubos.org", "osm_id": 4034199317, "osm_type": "nodes" }, "geometry": { "type": "Point", "coordinates": [ 30.2998082, 0.6619089 ] } },
{ "type": "Feature", "properties": { "fid": 3, "name": "Fortportal International Nursing School", "amenity": "college", "operator:type": "private", "addr:city": "Rwengoma Ai", "source": "www.ubos.org", "osm_id": 4034212682, "osm_type": "nodes" }, "geometry": { "type": "Point", "coordinates": [ 30.2662323, 0.6606393 ] } },
{ "type": "Feature", "properties": { "fid": 4, "name": "Saint Peter and Paul Primary School", "amenity": "primary school", "operator:type": null, "addr:city": "Virika", "source": "www.ubos.org", "osm_id": 4032726426, "osm_type": "nodes" }, "geometry": { "type": "Point", "coordinates": [ 30.2662176, 0.6338519 ] } },
{ "type": "Feature", "properties": { "fid": 5, "name": "Bukwali Primary School", "amenity": "primary school", "operator:type": "public", "addr:city": "Kisumbi C", "source": "www.ubos.org", "osm_id": 4032525176, "osm_type": "nodes" }, "geometry": { "type": "Point", "coordinates": [ 30.2859859, 0.6419709 ] } },
{ "type": "Feature", "properties": { "fid": 6, "name": "St Mary's Seminary", "amenity": "college", "operator:type": null, "addr:city": null, "source": null, "osm_id": 3974817335, "osm_type": "nodes" }, "geometry": { "type": "Point", "coordinates": [ 30.2679666, 0.6371727 ] } },
{ "type": "Feature", "properties": { "fid": 7, "name": "Hillside Nursery School", "amenity": "kindergarten", "operator:type": null, "addr:city": "Ibonde I", "source": "www.ubos.org", "osm_id": 4027475685, "osm_type": "nodes" }, "geometry": { "type": "Point", "coordinates": [ 30.2160814, 0.6673235 ] } },
{ "type": "Feature", "properties": { "fid": 8, "name": "Maria Thereza Nursery School", "amenity": "kindergarten", "operator:type": "private", "addr:city": "Boma West", "source": "www.ubos.org", "osm_id": 3820882215, "osm_type": "nodes" }, "geometry": { "type": "Point", "coordinates": [ 30.2856987, 0.6705866 ] } },
{ "type": "Feature", "properties": { "fid": 9, "name": "Infant Jesus Nursery School", "amenity": "kindergarten", "operator:type": "private", "addr:city": "Boma West", "source": "www.ubos.org", "osm_id": 4034199316, "osm_type": "nodes" }, "geometry": { "type": "Point", "coordinates": [ 30.283727, 0.6760555 ] } },
{ "type": "Feature", "properties": { "fid": 11, "name": "Bukuuku Primary School", "amenity": "primary school", "operator:type": null, "addr:city": "Ibonde II", "source": "www.ubos.org", "osm_id": 4027475681, "osm_type": "nodes" }, "geometry": { "type": "Point", "coordinates": [ 30.2056285, 0.6700446 ] } },
{ "type": "Feature", "properties": { "fid": 12, "name": "Busoma Early Childhood Learning Centre", "amenity": "other", "operator:type": null, "addr:city": "Busoma A", "source": "www.ubos.org", "osm_id": 4027475682, "osm_type": "nodes" }, "geometry": { "type": "Point", "coordinates": [ 30.1803923, 0.6797098 ] } },
{ "type": "Feature", "properties": { "fid": 13, "name": "Nyakasura Juniour Primary School", "amenity": "primary school", "operator:type": null, "addr:city": "Ibonde I", "source": "www.ubos.org", "osm_id": 4027475904, "osm_type": "nodes" }, "geometry": { "type": "Point", "coordinates": [ 30.2231668, 0.6699343 ] } },
{ "type": "Feature", "properties": { "fid": 14, "name": "Canon Apollo Core Primary Teachers College", "amenity": "college", "operator:type": null, "addr:city": "Bukuuku", "source": "www.ubos.org", "osm_id": 4027475683, "osm_type": "nodes" }, "geometry": { "type": "Point", "coordinates": [ 30.2189104, 0.67694 ] } },
{ "type": "Feature", "properties": { "fid": 15, "name": "Saint Kizito Primary School", "amenity": "primary school", "operator:type": null, "addr:city": "Karago B", "source": "www.ubos.org", "osm_id": 4027475912, "osm_type": "nodes" }, "geometry": { "type": "Point", "coordinates": [ 30.1955558, 0.6801913 ] } },
{ "type": "Feature", "properties": { "fid": 16, "name": "Kabarole Adventist Secondary School", "amenity": "secondary school", "operator:type": "private", "addr:city": "Kagote B", "source": "www.ubos.org", "osm_id": 4034212683, "osm_type": "nodes" }, "geometry": { "type": "Point", "coordinates": [ 30.274581, 0.6610715 ] } },
{ "type": "Feature", "properties": { "fid": 17, "name": "Kabarole Primary School", "amenity": "primary school", "operator:type": "public", "addr:city": "Kabarole Hill", "source": "www.ubos.org", "osm_id": 4032726402, "osm_type": "nodes" }, "geometry": { "type": "Point", "coordinates": [ 30.275205, 0.6478356 ] } },
{ "type": "Feature", "properties": { "fid": 18, "name": "Ibonde Early Child Learning Centre", "amenity": "other", "operator:type": null, "addr:city": "Ibonde I", "source": "www.ubos.org", "osm_id": 4027475686, "osm_type": "nodes" }, "geometry": { "type": "Point", "coordinates": [ 30.2258626, 0.662745 ] } },
{ "type": "Feature", "properties": { "fid": 19, "name": "Karambi Madarasa Nursery School", "amenity": "kindergarten", "operator:type": "private", "addr:city": "Karambi I", "source": "www.ubos.org", "osm_id": 4032726405, "osm_type": "nodes" }, "geometry": { "type": "Point", "coordinates": [ 30.2463757, 0.6320366 ] } },
{ "type": "Feature", "properties": { "fid": 20, "name": "Kasojo-Muhote Nursery School", "amenity": "kindergarten", "operator:type": "private", "addr:city": "Kasojo/muhote", "source": "www.ubos.org", "osm_id": 4034212687, "osm_type": "nodes" }, "geometry": { "type": "Point", "coordinates": [ 30.2570152, 0.6835749 ] } },
{ "type": "Feature", "properties": { "fid": 21, "name": "Nyabukara Primary School", "amenity": "primary school", "operator:type": "private", "addr:city": "Nyabukara", "source": "www.ubos.org", "osm_id": 4034199321, "osm_type": "nodes" }, "geometry": { "type": "Point", "coordinates": [ 30.2810994, 0.6788816 ] } },
{ "type": "Feature", "properties": { "fid": 22, "name": "Kabarole Hillside Secondary School", "amenity": "secondary school", "operator:type": null, "addr:city": "Harukoto A", "source": "www.ubos.org", "osm_id": 4032726400, "osm_type": "nodes" }, "geometry": { "type": "Point", "coordinates": [ 30.2682373, 0.6521663 ] } },
{ "type": "Feature", "properties": { "fid": 23, "name": "Kyebambe Model Primary School", "amenity": "primary school", "operator:type": "public", "addr:city": "Kabarole Hill", "source": "www.ubos.org", "osm_id": 4032726408, "osm_type": "nodes" }, "geometry": { "type": "Point", "coordinates": [ 30.2742306, 0.6497819 ] } },
{ "type": "Feature", "properties": { "fid": 24, "name": "UGANDA PENTECOSTAL UNIVERSITY ADMINISTRATION", "amenity": "university", "operator:type": null, "addr:city": "FORTPORTAL", "source": null, "osm_id": 5486143769, "osm_type": "nodes" }, "geometry": { "type": "Point", "coordinates": [ 30.2739361, 0.6389436 ] } },
{ "type": "Feature", "properties": { "fid": 25, "name": "Rubingo Nursery School", "amenity": "kindergarten", "operator:type": "private", "addr:city": "Rubingo", "source": "www.ubos.org", "osm_id": 4032726411, "osm_type": "nodes" }, "geometry": { "type": "Point", "coordinates": [ 30.2680748, 0.6176012 ] } },
{ "type": "Feature", "properties": { "fid": 26, "name": "Kihembo Hill College Secondary School", "amenity": "college", "operator:type": "private", "addr:city": "Kiduukuru B", "source": "www.ubos.org", "osm_id": 4032726407, "osm_type": "nodes" }, "geometry": { "type": "Point", "coordinates": [ 30.2546127, 0.6307651 ] } },
{ "type": "Feature", "properties": { "fid": 27, "name": "Tooro High School", "amenity": "secondary school", "operator:type": "private", "addr:city": "Kyarwabugodi/buraro", "source": "www.ubos.org", "osm_id": 4032525395, "osm_type": "nodes" }, "geometry": { "type": "Point", "coordinates": [ 30.2946733, 0.636129 ] } },
{ "type": "Feature", "properties": { "fid": 28, "name": "Saint Mary Primary School", "amenity": "primary school", "operator:type": "private", "addr:city": "Nyakasanja", "source": "www.ubos.org", "osm_id": 4030848285, "osm_type": "nodes" }, "geometry": { "type": "Point", "coordinates": [ 30.2642482, 0.5968005 ] } },
{ "type": "Feature", "properties": { "fid": 29, "name": "Gweri Primary School", "amenity": "primary school", "operator:type": "public", "addr:city": "Mugasani", "source": "www.ubos.org", "osm_id": 4030848269, "osm_type": "nodes" }, "geometry": { "type": "Point", "coordinates": [ 30.289834, 0.5952576 ] } },
{ "type": "Feature", "properties": { "fid": 30, "name": "International Junior Academy Nursery and Primary School", "amenity": "primary school", "operator:type": null, "addr:city": "Nsorro A", "source": "www.ubos.org", "osm_id": 4032726398, "osm_type": "nodes" }, "geometry": { "type": "Point", "coordinates": [ 30.2592086, 0.6214611 ] } },
{ "type": "Feature", "properties": { "fid": 31, "name": "Kabarole Parents' Primary School", "amenity": "primary school", "operator:type": null, "addr:city": "Buhinga", "source": "www.ubos.org", "osm_id": 4032726401, "osm_type": "nodes" }, "geometry": { "type": "Point", "coordinates": [ 30.276445, 0.6532157 ] } },
{ "type": "Feature", "properties": { "fid": 32, "name": "Psalms Music School", "amenity": "other", "operator:type": null, "addr:city": null, "source": null, "osm_id": 8575853118, "osm_type": "nodes" }, "geometry": { "type": "Point", "coordinates": [ 30.2733497, 0.6544922 ] } },
{ "type": "Feature", "properties": { "fid": 33, "name": "Nyabukara Primary School", "amenity": "primary school", "operator:type": "public", "addr:city": "Kyamukerege", "source": "www.ubos.org", "osm_id": 4034199322, "osm_type": "nodes" }, "geometry": { "type": "Point", "coordinates": [ 30.278378, 0.6819173 ] } },
{ "type": "Feature", "properties": { "fid": 34, "name": "Kahunga Bunyonyi Primary School", "amenity": "primary school", "operator:type": "public", "addr:city": "Rwengoma Ai", "source": "www.ubos.org", "osm_id": 4034212686, "osm_type": "nodes" }, "geometry": { "type": "Point", "coordinates": [ 30.2659798, 0.6619146 ] } },
{ "type": "Feature", "properties": { "fid": 35, "name": "Saint Charles Lwanga Primary School", "amenity": "primary school", "operator:type": "private", "addr:city": "Rukiidi -ruhandika", "source": "www.ubos.org", "osm_id": 4032726417, "osm_type": "nodes" }, "geometry": { "type": "Point", "coordinates": [ 30.2752408, 0.6563026 ] } },
{ "type": "Feature", "properties": { "fid": 36, "name": "Stella Maria Nursery School", "amenity": "kindergarten", "operator:type": null, "addr:city": "Kabarole Hill", "source": "www.ubos.org", "osm_id": 4032726418, "osm_type": "nodes" }, "geometry": { "type": "Point", "coordinates": [ 30.274344, 0.6506964 ] } },
{ "type": "Feature", "properties": { "fid": 37, "name": "King of King's Secondary School", "amenity": "secondary school", "operator:type": null, "addr:city": "Harukoto B", "source": "www.ubos.org", "osm_id": 3974322798, "osm_type": "nodes" }, "geometry": { "type": "Point", "coordinates": [ 30.2671623, 0.6447512 ] } },
{ "type": "Feature", "properties": { "fid": 38, "name": "Divine Mercy Primary School", "amenity": "primary school", "operator:type": "private", "addr:city": "Boma West", "source": "www.ubos.org", "osm_id": 3820882252, "osm_type": "nodes" }, "geometry": { "type": "Point", "coordinates": [ 30.2859818, 0.6705619 ] } },
{ "type": "Feature", "properties": { "fid": 39, "name": "Njara Hill Primary School", "amenity": "primary school", "operator:type": "public", "addr:city": "Njara B", "source": "www.ubos.org", "osm_id": 4034199320, "osm_type": "nodes" }, "geometry": { "type": "Point", "coordinates": [ 30.2859507, 0.6676809 ] } },
{ "type": "Feature", "properties": { "fid": 40, "name": "Green Circle Primary School", "amenity": "primary school", "operator:type": "public", "addr:city": "Boma West", "source": "www.ubos.org", "osm_id": 4034199315, "osm_type": "nodes" }, "geometry": { "type": "Point", "coordinates": [ 30.2787366, 0.6616156 ] } },
{ "type": "Feature", "properties": { "fid": 41, "name": "Mary and Joseph Nursery School, Buhinga", "amenity": "kindergarten", "operator:type": null, "addr:city": "Mugurusi Road", "source": "www.ubos.org", "osm_id": 4032525187, "osm_type": "nodes" }, "geometry": { "type": "Point", "coordinates": [ 30.2785403, 0.6535464 ] } },
{ "type": "Feature", "properties": { "fid": 42, "name": "Rukiidi Secondary School", "amenity": "secondary school", "operator:type": "private", "addr:city": "Harukoto B", "source": "www.ubos.org", "osm_id": 4032726413, "osm_type": "nodes" }, "geometry": { "type": "Point", "coordinates": [ 30.2678551, 0.6440708 ] } },
{ "type": "Feature", "properties": { "fid": 43, "name": "Mpanga Secondary School", "amenity": "secondary school", "operator:type": "public", "addr:city": "Booma East", "source": "www.ubos.org", "osm_id": 3974322795, "osm_type": "nodes" }, "geometry": { "type": "Point", "coordinates": [ 30.2813777, 0.6580801 ] } },
{ "type": "Feature", "properties": { "fid": 44, "name": "Tooro Primary School", "amenity": "primary school", "operator:type": "private", "addr:city": "Kagote B", "source": "www.ubos.org", "osm_id": 4034217990, "osm_type": "nodes" }, "geometry": { "type": "Point", "coordinates": [ 30.2711583, 0.6649294 ] } },
{ "type": "Feature", "properties": { "fid": 45, "name": "Fort Portal School of Clinical Officers", "amenity": "college", "operator:type": null, "addr:city": "School Of Clinical Officer", "source": "www.ubos.org", "osm_id": 3974322790, "osm_type": "nodes" }, "geometry": { "type": "Point", "coordinates": [ 30.2802492, 0.6541685 ] } },
{ "type": "Feature", "properties": { "fid": 46, "name": "Kikura Nursery School", "amenity": "kindergarten", "operator:type": null, "addr:city": "Kikura", "source": "www.ubos.org", "osm_id": 4027475896, "osm_type": "nodes" }, "geometry": { "type": "Point", "coordinates": [ 30.1988639, 0.6859326 ] } },
{ "type": "Feature", "properties": { "fid": 47, "name": "Twee and Tots Nursery School", "amenity": "kindergarten", "operator:type": "private", "addr:city": "Karambi II", "source": "www.ubos.org", "osm_id": 4032726427, "osm_type": "nodes" }, "geometry": { "type": "Point", "coordinates": [ 30.2385856, 0.6388534 ] } },
{ "type": "Feature", "properties": { "fid": 48, "name": "Mountains of the Moon University", "amenity": "university", "operator:type": "private", "addr:city": "Kasindikwa-nyakaziba", "source": "www.ubos.org", "osm_id": 4034217989, "osm_type": "nodes" }, "geometry": { "type": "Point", "coordinates": [ 30.2472164, 0.6872492 ] } },
{ "type": "Feature", "properties": { "fid": 49, "name": "Mountains of the Moon Primary School", "amenity": "primary school", "operator:type": "public", "addr:city": "Kasindikwa-nyakaziba", "source": "www.ubos.org", "osm_id": 4034212688, "osm_type": "nodes" }, "geometry": { "type": "Point", "coordinates": [ 30.2537343, 0.6936069 ] } },
{ "type": "Feature", "properties": { "fid": 50, "name": "Burungu Primary School", "amenity": "primary school", "operator:type": null, "addr:city": "Birayobora", "source": "www.ubos.org", "osm_id": 4027475676, "osm_type": "nodes" }, "geometry": { "type": "Point", "coordinates": [ 30.2302989, 0.6285522 ] } },
{ "type": "Feature", "properties": { "fid": 51, "name": "Kazingo Seventh-day Adventist Primary School", "amenity": "primary school", "operator:type": null, "addr:city": "Nyango", "source": "www.ubos.org", "osm_id": 4027475894, "osm_type": "nodes" }, "geometry": { "type": "Point", "coordinates": [ 30.174572, 0.6593961 ] } },
{ "type": "Feature", "properties": { "fid": 52, "name": "Butebe Primary School", "amenity": "primary school", "operator:type": "public", "addr:city": "Kyakitara", "source": "www.ubos.org", "osm_id": 4032726394, "osm_type": "nodes" }, "geometry": { "type": "Point", "coordinates": [ 30.242228, 0.6542993 ] } },
{ "type": "Feature", "properties": { "fid": 53, "name": "Saint Kizito Nursery School", "amenity": "kindergarten", "operator:type": null, "addr:city": "Bukuuku", "source": "www.ubos.org", "osm_id": 4027475911, "osm_type": "nodes" }, "geometry": { "type": "Point", "coordinates": [ 30.1990724, 0.6745222 ] } },
{ "type": "Feature", "properties": { "fid": 54, "name": "Canon Apollo Demostration Primary School", "amenity": "primary school", "operator:type": null, "addr:city": "Bukuuku", "source": "www.ubos.org", "osm_id": 4027475684, "osm_type": "nodes" }, "geometry": { "type": "Point", "coordinates": [ 30.2119137, 0.6760665 ] } },
{ "type": "Feature", "properties": { "fid": 55, "name": "Kitaraga Primary School", "amenity": "primary school", "operator:type": null, "addr:city": "Bulera A", "source": "www.ubos.org", "osm_id": 4027475898, "osm_type": "nodes" }, "geometry": { "type": "Point", "coordinates": [ 30.1931646, 0.6905576 ] } },
{ "type": "Feature", "properties": { "fid": 56, "name": "Kitumba Secondary School", "amenity": "secondary school", "operator:type": "public", "addr:city": "Nyabinamba", "source": "www.ubos.org", "osm_id": 4032525185, "osm_type": "nodes" }, "geometry": { "type": "Point", "coordinates": [ 30.311094, 0.6475526 ] } },
{ "type": "Feature", "properties": { "fid": 57, "name": "Sky is The Limit Nursery and Primary School", "amenity": "primary school", "operator:type": null, "addr:city": "Binanata A", "source": "www.ubos.org", "osm_id": 4032525394, "osm_type": "nodes" }, "geometry": { "type": "Point", "coordinates": [ 30.2941389, 0.6532904 ] } },
{ "type": "Feature", "properties": { "fid": 58, "name": "Saint Leo's College Kyegobe", "amenity": "college", "operator:type": null, "addr:city": "St. Leo's College", "source": "www.ubos.org", "osm_id": 4032525392, "osm_type": "nodes" }, "geometry": { "type": "Point", "coordinates": [ 30.2862366, 0.6290164 ] } },
{ "type": "Feature", "properties": { "fid": 59, "name": "Stann Nursery School", "amenity": "kindergarten", "operator:type": "private", "addr:city": "Rubingo", "source": "www.ubos.org", "osm_id": 4030848283, "osm_type": "nodes" }, "geometry": { "type": "Point", "coordinates": [ 30.2683656, 0.6107592 ] } },
{ "type": "Feature", "properties": { "fid": 60, "name": "Rubingo Nursery School", "amenity": "kindergarten", "operator:type": null, "addr:city": "Rubingo", "source": "www.ubos.org", "osm_id": 4032726412, "osm_type": "nodes" }, "geometry": { "type": "Point", "coordinates": [ 30.2642147, 0.6203514 ] } },
{ "type": "Feature", "properties": { "fid": 61, "name": "Victoria Nursery School", "amenity": "kindergarten", "operator:type": null, "addr:city": "Maguru A", "source": "www.ubos.org", "osm_id": 4032726429, "osm_type": "nodes" }, "geometry": { "type": "Point", "coordinates": [ 30.2735564, 0.6380463 ] } },
{ "type": "Feature", "properties": { "fid": 62, "name": "Mukumbwe Primary School", "amenity": "primary school", "operator:type": "public", "addr:city": "Mukumbwe", "source": "www.ubos.org", "osm_id": 4030848280, "osm_type": "nodes" }, "geometry": { "type": "Point", "coordinates": [ 30.2645192, 0.6043343 ] } },
{ "type": "Feature", "properties": { "fid": 63, "name": "Greenhill Nursery and Primary School", "amenity": "primary school", "operator:type": null, "addr:city": "Kasusu C", "source": "www.ubos.org", "osm_id": 4032726396, "osm_type": "nodes" }, "geometry": { "type": "Point", "coordinates": [ 30.2555732, 0.6223183 ] } },
{ "type": "Feature", "properties": { "fid": 64, "name": "Uganda Pentecostal University Muchwa Campus", "amenity": "university", "operator:type": null, "addr:city": null, "source": null, "osm_id": 5443445221, "osm_type": "nodes" }, "geometry": { "type": "Point", "coordinates": [ 30.2739361, 0.6389436 ] } },
{ "type": "Feature", "properties": { "fid": 65, "name": "Saint Maria Goretti Secondary School", "amenity": "secondary school", "operator:type": null, "addr:city": null, "source": null, "osm_id": 3974817334, "osm_type": "nodes" }, "geometry": { "type": "Point", "coordinates": [ 30.2706055, 0.63857 ] } },
{ "type": "Feature", "properties": { "fid": 66, "name": "Saint John Mary Vianney's Comprehensive School", "amenity": "other", "operator:type": null, "addr:city": "Virika", "source": "www.ubos.org", "osm_id": 4032726419, "osm_type": "nodes" }, "geometry": { "type": "Point", "coordinates": [ 30.2709612, 0.6351316 ] } },
{ "type": "Feature", "properties": { "fid": 67, "name": "Saint Mary's Seminary", "amenity": "other", "operator:type": null, "addr:city": "Virika", "source": "www.ubos.org", "osm_id": 4032726422, "osm_type": "nodes" }, "geometry": { "type": "Point", "coordinates": [ 30.2679409, 0.635748 ] } },
{ "type": "Feature", "properties": { "fid": 68, "name": "Saint Paul National Seminary", "amenity": "other", "operator:type": null, "addr:city": "Kinyamasika", "source": "www.ubos.org", "osm_id": 4032726425, "osm_type": "nodes" }, "geometry": { "type": "Point", "coordinates": [ 30.2780147, 0.6328291 ] } },
{ "type": "Feature", "properties": { "fid": 69, "name": "Virika School of Comprehensive Nursing", "amenity": "college", "operator:type": null, "addr:city": "Virika", "source": "www.ubos.org", "osm_id": 4032726430, "osm_type": "nodes" }, "geometry": { "type": "Point", "coordinates": [ 30.2684039, 0.6379031 ] } },
{ "type": "Feature", "properties": { "fid": 70, "name": "Banyatereza Holy Family Nursery School", "amenity": "kindergarten", "operator:type": null, "addr:city": "Kinyamasika", "source": "www.ubos.org", "osm_id": 4032525174, "osm_type": "nodes" }, "geometry": { "type": "Point", "coordinates": [ 30.2820128, 0.6297484 ] } },
{ "type": "Feature", "properties": { "fid": 71, "name": "Cleverland Nursery and Primary School", "amenity": "primary school", "operator:type": null, "addr:city": "Kidukuru Kihembo 'a'", "source": "www.ubos.org", "osm_id": 4032726395, "osm_type": "nodes" }, "geometry": { "type": "Point", "coordinates": [ 30.2603948, 0.6314434 ] } },
{ "type": "Feature", "properties": { "fid": 72, "name": "Rift Valley Ecological Farm Institute", "amenity": "other", "operator:type": null, "addr:city": "Karago B", "source": "www.ubos.org", "osm_id": 4027475907, "osm_type": "nodes" }, "geometry": { "type": "Point", "coordinates": [ 30.1937866, 0.6818334 ] } },
{ "type": "Feature", "properties": { "fid": 73, "name": "Rwenzori Construction and Training Institute", "amenity": "other", "operator:type": null, "addr:city": "Harukoto Kasese Road", "source": "www.ubos.org", "osm_id": 4032726415, "osm_type": "nodes" }, "geometry": { "type": "Point", "coordinates": [ 30.2709205, 0.6476449 ] } },
{ "type": "Feature", "properties": { "fid": 74, "name": "Saint Paul College", "amenity": "college", "operator:type": "private", "addr:city": "Rwengoma Cii", "source": "www.ubos.org", "osm_id": 4032726423, "osm_type": "nodes" }, "geometry": { "type": "Point", "coordinates": [ 30.2605685, 0.6558235 ] } },
{ "type": "Feature", "properties": { "fid": 75, "name": "Buhinga Primary School", "amenity": "primary school", "operator:type": "public", "addr:city": "Mugurusi Road", "source": "www.ubos.org", "osm_id": 4032525175, "osm_type": "nodes" }, "geometry": { "type": "Point", "coordinates": [ 30.2786769, 0.6547801 ] } },
{ "type": "Feature", "properties": { "fid": 76, "name": "Good Samaritan Nursery School", "amenity": "kindergarten", "operator:type": null, "addr:city": "Kabegira-kyamunyali", "source": "www.ubos.org", "osm_id": 4032471007, "osm_type": "nodes" }, "geometry": { "type": "Point", "coordinates": [ 30.3226709, 0.6452007 ] } },
{ "type": "Feature", "properties": { "fid": 77, "name": "Kitumba Primary School", "amenity": "primary school", "operator:type": "public", "addr:city": "Nyabinamba", "source": "www.ubos.org", "osm_id": 4032525184, "osm_type": "nodes" }, "geometry": { "type": "Point", "coordinates": [ 30.3117494, 0.6472724 ] } },
{ "type": "Feature", "properties": { "fid": 78, "name": "Mariana Nursery School", "amenity": "kindergarten", "operator:type": null, "addr:city": "Kangama", "source": "www.ubos.org", "osm_id": 4027475902, "osm_type": "nodes" }, "geometry": { "type": "Point", "coordinates": [ 30.2317589, 0.6416382 ] } },
{ "type": "Feature", "properties": { "fid": 79, "name": "Tawakal Nursery School", "amenity": "kindergarten", "operator:type": null, "addr:city": "Njara C", "source": "www.ubos.org", "osm_id": 4034199323, "osm_type": "nodes" }, "geometry": { "type": "Point", "coordinates": [ 30.2937095, 0.6603508 ] } },
{ "type": "Feature", "properties": { "fid": 80, "name": "Saint Charles Lwanga Nursery School", "amenity": "kindergarten", "operator:type": null, "addr:city": "Rukiidi -ruhandika", "source": "www.ubos.org", "osm_id": 4032726416, "osm_type": "nodes" }, "geometry": { "type": "Point", "coordinates": [ 30.2753165, 0.6553663 ] } },
{ "type": "Feature", "properties": { "fid": 81, "name": "Fort Portal Institute of Commerce", "amenity": "other", "operator:type": null, "addr:city": "Njara B", "source": "www.ubos.org", "osm_id": 4034199314, "osm_type": "nodes" }, "geometry": { "type": "Point", "coordinates": [ 30.2892941, 0.6620024 ] } },
{ "type": "Feature", "properties": { "fid": 82, "name": "Kamengo Secondary School", "amenity": "secondary school", "operator:type": "public", "addr:city": "Kamengo A", "source": "www.ubos.org", "osm_id": 4034199318, "osm_type": "nodes" }, "geometry": { "type": "Point", "coordinates": [ 30.2980947, 0.661532 ] } },
{ "type": "Feature", "properties": { "fid": 83, "name": "Nyakagongo Primary School", "amenity": "primary school", "operator:type": null, "addr:city": "Nyakagongo Cell", "source": "www.ubos.org", "osm_id": 4032525389, "osm_type": "nodes" }, "geometry": { "type": "Point", "coordinates": [ 30.2997612, 0.6452624 ] } },
{ "type": "Feature", "properties": { "fid": 84, "name": "Saint Jude Primary School", "amenity": "primary school", "operator:type": "private", "addr:city": "Kigaya", "source": "www.ubos.org", "osm_id": 4032525391, "osm_type": "nodes" }, "geometry": { "type": "Point", "coordinates": [ 30.2849172, 0.6208013 ] } },
{ "type": "Feature", "properties": { "fid": 85, "name": "Kagote Primary School", "amenity": "primary school", "operator:type": "public", "addr:city": "Kagote D", "source": "www.ubos.org", "osm_id": 4034212684, "osm_type": "nodes" }, "geometry": { "type": "Point", "coordinates": [ 30.266206, 0.6709137 ] } },
{ "type": "Feature", "properties": { "fid": 86, "name": "Kahinju Secondary School", "amenity": "secondary school", "operator:type": "public", "addr:city": "Kikunyu", "source": "www.ubos.org", "osm_id": 4032726404, "osm_type": "nodes" }, "geometry": { "type": "Point", "coordinates": [ 30.2527439, 0.6544335 ] } },
{ "type": "Feature", "properties": { "fid": 87, "name": "Karambi Primary School", "amenity": "primary school", "operator:type": "public", "addr:city": "Karambi II", "source": "www.ubos.org", "osm_id": 4032726406, "osm_type": "nodes" }, "geometry": { "type": "Point", "coordinates": [ 30.2416531, 0.6362556 ] } },
{ "type": "Feature", "properties": { "fid": 88, "name": "Saint Paul Junior Primary School", "amenity": "primary school", "operator:type": "private", "addr:city": "Rwengoma Biii", "source": "www.ubos.org", "osm_id": 4032726424, "osm_type": "nodes" }, "geometry": { "type": "Point", "coordinates": [ 30.2631299, 0.6571219 ] } },
{ "type": "Feature", "properties": { "fid": 89, "name": "International College of Bussiness School", "amenity": "college", "operator:type": "private", "addr:city": "Rukiidi -ruhandika", "source": "www.ubos.org", "osm_id": 4032726397, "osm_type": "nodes" }, "geometry": { "type": "Point", "coordinates": [ 30.2748095, 0.6555855 ] } },
{ "type": "Feature", "properties": { "fid": 90, "name": "Bagaya Primary School", "amenity": "primary school", "operator:type": null, "addr:city": "Bulera A", "source": "www.ubos.org", "osm_id": 4027475675, "osm_type": "nodes" }, "geometry": { "type": "Point", "coordinates": [ 30.1883858, 0.6868232 ] } },
{ "type": "Feature", "properties": { "fid": 91, "name": "Bukuuku Community Secondary School", "amenity": "secondary school", "operator:type": null, "addr:city": "Karago A", "source": "www.ubos.org", "osm_id": 4027475680, "osm_type": "nodes" }, "geometry": { "type": "Point", "coordinates": [ 30.1956759, 0.6787147 ] } },
{ "type": "Feature", "properties": { "fid": 92, "name": "Nyakasura Secondary School", "amenity": "secondary school", "operator:type": null, "addr:city": "Ibonde I", "source": "www.ubos.org", "osm_id": 4027475905, "osm_type": "nodes" }, "geometry": { "type": "Point", "coordinates": [ 30.2204929, 0.671384 ] } },
{ "type": "Feature", "properties": { "fid": 93, "name": "Bishop Magambo Counseling Training Institute", "amenity": "other", "operator:type": null, "addr:city": "Virika", "source": "www.ubos.org", "osm_id": 4032726393, "osm_type": "nodes" }, "geometry": { "type": "Point", "coordinates": [ 30.2692677, 0.6349809 ] } },
{ "type": "Feature", "properties": { "fid": 94, "name": "Kinyamasika Primary School", "amenity": "primary school", "operator:type": "public", "addr:city": "Kinyamasika", "source": "www.ubos.org", "osm_id": 4032525182, "osm_type": "nodes" }, "geometry": { "type": "Point", "coordinates": [ 30.2795547, 0.6315985 ] } },
{ "type": "Feature", "properties": { "fid": 95, "name": "Bishop Balya Theological College", "amenity": "college", "operator:type": null, "addr:city": "Ibonde II", "source": "www.ubos.org", "osm_id": 4027475677, "osm_type": "nodes" }, "geometry": { "type": "Point", "coordinates": [ 30.2058797, 0.6712816 ] } },
{ "type": "Feature", "properties": { "fid": 96, "name": "Kitoogo Farm Nursery & Primary School", "amenity": "primary school", "operator:type": null, "addr:city": "Ibonde I", "source": "www.ubos.org", "osm_id": 4027475899, "osm_type": "nodes" }, "geometry": { "type": "Point", "coordinates": [ 30.2186517, 0.6706534 ] } },
{ "type": "Feature", "properties": { "fid": 97, "name": "Kitumba Muslim Nursery School", "amenity": "kindergarten", "operator:type": "private", "addr:city": "Binanata A", "source": "www.ubos.org", "osm_id": 4032525183, "osm_type": "nodes" }, "geometry": { "type": "Point", "coordinates": [ 30.2960928, 0.657416 ] } },
{ "type": "Feature", "properties": { "fid": 98, "name": "Star Nursery School", "amenity": "kindergarten", "operator:type": null, "addr:city": "Bukuuku", "source": "www.ubos.org", "osm_id": 4027475908, "osm_type": "nodes" }, "geometry": { "type": "Point", "coordinates": [ 30.1987326, 0.6753793 ] } },
{ "type": "Feature", "properties": { "fid": 99, "name": "Grace Golden Nursery School", "amenity": "kindergarten", "operator:type": null, "addr:city": "Kaihokwa", "source": "www.ubos.org", "osm_id": 4032525178, "osm_type": "nodes" }, "geometry": { "type": "Point", "coordinates": [ 30.3063025, 0.6563852 ] } },
{ "type": "Feature", "properties": { "fid": 100, "name": "Kabatsa Nursery School", "amenity": "kindergarten", "operator:type": null, "addr:city": "Mukonomura", "source": "www.ubos.org", "osm_id": 4032525181, "osm_type": "nodes" }, "geometry": { "type": "Point", "coordinates": [ 30.301252, 0.6430205 ] } },
{ "type": "Feature", "properties": { "fid": 101, "name": "Banyatereza Golden Jubilee Primary School", "amenity": "primary school", "operator:type": null, "addr:city": "Njara A", "source": "www.ubos.org", "osm_id": 4034199311, "osm_type": "nodes" }, "geometry": { "type": "Point", "coordinates": [ 30.2855682, 0.6704722 ] } },
{ "type": "Feature", "properties": { "fid": 102, "name": "Kyebambe Girls Secondary School", "amenity": "secondary school", "operator:type": null, "addr:city": "Kabarole Hill", "source": "www.ubos.org", "osm_id": 3974322793, "osm_type": "nodes" }, "geometry": { "type": "Point", "coordinates": [ 30.2760337, 0.6465155 ] } },
{ "type": "Feature", "properties": { "fid": 103, "name": "Kabarole College of Commerce and Computer", "amenity": "college", "operator:type": null, "addr:city": "Buhinga", "source": "www.ubos.org", "osm_id": 4032726399, "osm_type": "nodes" }, "geometry": { "type": "Point", "coordinates": [ 30.277361, 0.6535097 ] } },
{ "type": "Feature", "properties": { "fid": 104, "name": "Saint Maria Goretti Primary School", "amenity": "primary school", "operator:type": null, "addr:city": "Virika", "source": "www.ubos.org", "osm_id": 4032726421, "osm_type": "nodes" }, "geometry": { "type": "Point", "coordinates": [ 30.2701817, 0.6381934 ] } },
{ "type": "Feature", "properties": { "fid": 105, "name": "Kiguma Primary School", "amenity": "primary school", "operator:type": null, "addr:city": "Bunyansaigi", "source": "www.ubos.org", "osm_id": 4027475895, "osm_type": "nodes" }, "geometry": { "type": "Point", "coordinates": [ 30.2156052, 0.6438952 ] } },
{ "type": "Feature", "properties": { "fid": 106, "name": "Kagote Seed Secondary School", "amenity": "secondary school", "operator:type": "public", "addr:city": "Kagote D", "source": "www.ubos.org", "osm_id": 4034212685, "osm_type": "nodes" }, "geometry": { "type": "Point", "coordinates": [ 30.2658234, 0.6703406 ] } }
]
}
