{
"type": "FeatureCollection",
"name": "jinja_schools_data",
"crs": { "type": "name", "properties": { "name": "urn:ogc:def:crs:OGC:1.3:CRS84" } },
"features": [
{ "type": "Feature", "properties": { "fid": 12, "name": "Leeds Nursery and Day Care", "amenity": "kindergarten", "operator:type": null, "addr:city": "Bugembe Town Council", "source": null, "osm_id": 4041781325, "osm_type": "nodes" }, "geometry": { "type": "Point", "coordinates": [ 33.2357624, 0.4676539 ] } },
{ "type": "Feature", "properties": { "fid": 16, "name": "Lake View Nursery School", "amenity": "kindergarten", "operator:type": "private", "addr:city": "Wanyange Lake", "source": "www.ubos.org", "osm_id": 4069198215, "osm_type": "nodes" }, "geometry": { "type": "Point", "coordinates": [ 33.2504421, 0.4633356 ] } },
{ "type": "Feature", "properties": { "fid": 17, "name": "Liberty Nursery School", "amenity": "kindergarten", "operator:type": "private", "addr:city": "Wanyange Lake", "source": "www.ubos.org", "osm_id": 4069198219, "osm_type": "nodes" }, "geometry": { "type": "Point", "coordinates": [ 33.2467613, 0.4682672 ] } },
{ "type": "Feature", "properties": { "fid": 19, "name": "Good Parent Nursery School", "amenity": "kindergarten", "operator:type": null, "addr:city": "Butiki-mataala", "source": "www.ubos.org", "osm_id": 4066446000, "osm_type": "nodes" }, "geometry": { "type": "Point", "coordinates": [ 33.1860428, 0.4738021 ] } },
{ "type": "Feature", "properties": { "fid": 20, "name": "Divine Worship Nursery School", "amenity": "kindergarten", "operator:type": "private", "addr:city": "Butiki-mataala", "source": "www.ubos.org", "osm_id": 4064337235, "osm_type": "nodes" }, "geometry": { "type": "Point", "coordinates": [ 33.187975, 0.4853618 ] } },
{ "type": "Feature", "properties": { "fid": 21, "name": "Goodtimes Nursery School", "amenity": "kindergarten", "operator:type": null, "addr:city": "Idhogolo", "source": "www.ubos.org", "osm_id": 4064337237, "osm_type": "nodes" }, "geometry": { "type": "Point", "coordinates": [ 33.2061298, 0.4849757 ] } },
{ "type": "Feature", "properties": { "fid": 34, "name": "Dewey Pragmatic College", "amenity": "kindergarten", "operator:type": "private", "addr:city": "Wanyange Hill", "source": "www.ubos.org", "osm_id": 4069198193, "osm_type": "nodes" }, "geometry": { "type": "Point", "coordinates": [ 33.2447138, 0.4702591 ] } },
{ "type": "Feature", "properties": { "fid": 35, "name": "Hudaibiyya Primary School", "amenity": "primary school", "operator:type": "private", "addr:city": "Kanyogoga", "source": "www.ubos.org", "osm_id": 4069198203, "osm_type": "nodes" }, "geometry": { "type": "Point", "coordinates": [ 33.2300989, 0.4914865 ] } },
{ "type": "Feature", "properties": { "fid": 36, "name": "Mercy Nursery and Primary School", "amenity": "primary school", "operator:type": "private", "addr:city": "Commercial Cell", "source": "www.ubos.org", "osm_id": 4069198222, "osm_type": "nodes" }, "geometry": { "type": "Point", "coordinates": [ 33.2433565, 0.4655388 ] } },
{ "type": "Feature", "properties": { "fid": 37, "name": "Modern Primary School Bugembe", "amenity": "primary school", "operator:type": "private", "addr:city": "Eastern", "source": "www.ubos.org", "osm_id": 4069198224, "osm_type": "nodes" }, "geometry": { "type": "Point", "coordinates": [ 33.2296579, 0.4682821 ] } },
{ "type": "Feature", "properties": { "fid": 38, "name": "Musima Primary School", "amenity": "primary school", "operator:type": "public", "addr:city": "Musima", "source": "www.ubos.org", "osm_id": 4069198225, "osm_type": "nodes" }, "geometry": { "type": "Point", "coordinates": [ 33.2486174, 0.494184 ] } },
{ "type": "Feature", "properties": { "fid": 39, "name": "Niina High School", "amenity": "secondary school", "operator:type": "private", "addr:city": "Wanyange Hill", "source": "www.ubos.org", "osm_id": 4069198233, "osm_type": "nodes" }, "geometry": { "type": "Point", "coordinates": [ 33.2523999, 0.4782585 ] } },
{ "type": "Feature", "properties": { "fid": 40, "name": "Saint Maria and Jacenta Primary School", "amenity": "primary school", "operator:type": "private", "addr:city": "Wanyange Lake", "source": "www.ubos.org", "osm_id": 4069198244, "osm_type": "nodes" }, "geometry": { "type": "Point", "coordinates": [ 33.2508656, 0.4657586 ] } },
{ "type": "Feature", "properties": { "fid": 41, "name": "Primary School", "amenity": "primary school", "operator:type": null, "addr:city": null, "source": "www.ubos.org", "osm_id": 4069198236, "osm_type": "nodes" }, "geometry": { "type": "Point", "coordinates": [ 33.2363594, 0.4631014 ] } },
{ "type": "Feature", "properties": { "fid": 50, "name": "God's Will Nursery and Primary School", "amenity": "primary school", "operator:type": "private", "addr:city": "Mafubira C", "source": "www.ubos.org", "osm_id": 4066445998, "osm_type": "nodes" }, "geometry": { "type": "Point", "coordinates": [ 33.2093061, 0.4679171 ] } },
{ "type": "Feature", "properties": { "fid": 51, "name": "Kiwamirembe Formation Centre", "amenity": "other", "operator:type": null, "addr:city": "Rubaga", "source": "www.ubos.org", "osm_id": 4066446016, "osm_type": "nodes" }, "geometry": { "type": "Point", "coordinates": [ 33.2164224, 0.4557619 ] } },
{ "type": "Feature", "properties": { "fid": 52, "name": "Saint Gonzaga Primary School", "amenity": "primary school", "operator:type": "public", "addr:city": "Rubaga", "source": "www.ubos.org", "osm_id": 4066446033, "osm_type": "nodes" }, "geometry": { "type": "Point", "coordinates": [ 33.211072, 0.449952 ] } },
{ "type": "Feature", "properties": { "fid": 53, "name": "Saint Mulumba Polytechnic School", "amenity": "college", "operator:type": null, "addr:city": "Rubaga", "source": "www.ubos.org", "osm_id": 4066446037, "osm_type": "nodes" }, "geometry": { "type": "Point", "coordinates": [ 33.2123934, 0.4518781 ] } },
{ "type": "Feature", "properties": { "fid": 54, "name": "Uganda Matyr's Minor Seminary", "amenity": "other", "operator:type": null, "addr:city": "Rubaga", "source": "www.ubos.org", "osm_id": 4066446043, "osm_type": "nodes" }, "geometry": { "type": "Point", "coordinates": [ 33.2121739, 0.4484141 ] } },
{ "type": "Feature", "properties": { "fid": 55, "name": "Stagnes Mixed Day and Boarding Primary School", "amenity": "primary school", "operator:type": null, "addr:city": "Budondo", "source": null, "osm_id": 4041952366, "osm_type": "nodes" }, "geometry": { "type": "Point", "coordinates": [ 33.1541533, 0.5268103 ] } },
{ "type": "Feature", "properties": { "fid": 56, "name": "Standard High Secondary School", "amenity": "secondary school", "operator:type": "private", "addr:city": "Buyala Trc", "source": "www.ubos.org", "osm_id": 4064231797, "osm_type": "nodes" }, "geometry": { "type": "Point", "coordinates": [ 33.1507204, 0.5233634 ] } },
{ "type": "Feature", "properties": { "fid": 57, "name": "Bufuula Primary School", "amenity": "primary school", "operator:type": "public", "addr:city": "Bufuula A", "source": "www.ubos.org", "osm_id": 4064337234, "osm_type": "nodes" }, "geometry": { "type": "Point", "coordinates": [ 33.1958142, 0.507879 ] } },
{ "type": "Feature", "properties": { "fid": 58, "name": "Hudah Islamic Primary School", "amenity": "primary school", "operator:type": "private", "addr:city": "Kivubuka B", "source": "www.ubos.org", "osm_id": 4064337238, "osm_type": "nodes" }, "geometry": { "type": "Point", "coordinates": [ 33.1791568, 0.4970372 ] } },
{ "type": "Feature", "properties": { "fid": 59, "name": "Kiira College Butiki", "amenity": "college", "operator:type": null, "addr:city": "Butiki-mataala", "source": "www.ubos.org", "osm_id": 4064337240, "osm_type": "nodes" }, "geometry": { "type": "Point", "coordinates": [ 33.2001807, 0.4924287 ] } },
{ "type": "Feature", "properties": { "fid": 60, "name": "Kivubuka Primary School", "amenity": "primary school", "operator:type": null, "addr:city": "Kivubuka B", "source": "www.ubos.org", "osm_id": 4064337242, "osm_type": "nodes" }, "geometry": { "type": "Point", "coordinates": [ 33.1868252, 0.5030247 ] } },
{ "type": "Feature", "properties": { "fid": 61, "name": "Lwanda Primary School", "amenity": "primary school", "operator:type": "public", "addr:city": "Lwanda", "source": "www.ubos.org", "osm_id": 4064337245, "osm_type": "nodes" }, "geometry": { "type": "Point", "coordinates": [ 33.2191199, 0.5260928 ] } },
{ "type": "Feature", "properties": { "fid": 62, "name": "Nakabango Primary School", "amenity": "primary school", "operator:type": null, "addr:city": "Nakabango", "source": "www.ubos.org", "osm_id": 4064337247, "osm_type": "nodes" }, "geometry": { "type": "Point", "coordinates": [ 33.2168917, 0.5111178 ] } },
{ "type": "Feature", "properties": { "fid": 63, "name": "Namulesa Secondary School", "amenity": "secondary school", "operator:type": "private", "addr:city": "Namulesa", "source": "www.ubos.org", "osm_id": 4064337250, "osm_type": "nodes" }, "geometry": { "type": "Point", "coordinates": [ 33.2149753, 0.5019647 ] } },
{ "type": "Feature", "properties": { "fid": 64, "name": "Victoria Bright Primary School", "amenity": "primary school", "operator:type": "private", "addr:city": "Kivubuka B", "source": "www.ubos.org", "osm_id": 4064337257, "osm_type": "nodes" }, "geometry": { "type": "Point", "coordinates": [ 33.1858898, 0.5010313 ] } },
{ "type": "Feature", "properties": { "fid": 65, "name": "Primary School", "amenity": "primary school", "operator:type": null, "addr:city": null, "source": "www.ubos.org", "osm_id": 4064231796, "osm_type": "nodes" }, "geometry": { "type": "Point", "coordinates": [ 33.1623846, 0.5126663 ] } },
{ "type": "Feature", "properties": { "fid": 68, "name": "Jinja Twin Nursery and Primary School", "amenity": "primary school", "operator:type": null, "addr:city": "Budondo", "source": null, "osm_id": 4041952345, "osm_type": "nodes" }, "geometry": { "type": "Point", "coordinates": [ 33.1695356, 0.545707 ] } },
{ "type": "Feature", "properties": { "fid": 70, "name": "Buwagi Secondary School", "amenity": "secondary school", "operator:type": "public", "addr:city": "Buwagi Central", "source": "www.ubos.org", "osm_id": 4036003493, "osm_type": "nodes" }, "geometry": { "type": "Point", "coordinates": [ 33.1595992, 0.5376834 ] } },
{ "type": "Feature", "properties": { "fid": 72, "name": "Lukolo Muslim Primary School", "amenity": "primary school", "operator:type": "public", "addr:city": "Lukolo East", "source": "www.ubos.org", "osm_id": 4036003553, "osm_type": "nodes" }, "geometry": { "type": "Point", "coordinates": [ 33.1961633, 0.5647167 ] } },
{ "type": "Feature", "properties": { "fid": 77, "name": "Saint James Nursery School", "amenity": "kindergarten", "operator:type": null, "addr:city": "Gokhale", "source": "www.ubos.org", "osm_id": 4038323685, "osm_type": "nodes" }, "geometry": { "type": "Point", "coordinates": [ 33.2088565, 0.4332002 ] } },
{ "type": "Feature", "properties": { "fid": 78, "name": "Kitiibwa Vocational Training Centre", "amenity": "other", "operator:type": null, "addr:city": "School", "source": "www.ubos.org", "osm_id": 4069198213, "osm_type": "nodes" }, "geometry": { "type": "Point", "coordinates": [ 33.225557, 0.4436328 ] } },
{ "type": "Feature", "properties": { "fid": 79, "name": "Masese Community Centre Primary School", "amenity": "primary school", "operator:type": null, "addr:city": "Masese II", "source": "www.ubos.org", "osm_id": 4069198221, "osm_type": "nodes" }, "geometry": { "type": "Point", "coordinates": [ 33.2282693, 0.4469996 ] } },
{ "type": "Feature", "properties": { "fid": 80, "name": "Destiny Junior School", "amenity": "primary school", "operator:type": null, "addr:city": "Rubaga", "source": "www.ubos.org", "osm_id": 4066445996, "osm_type": "nodes" }, "geometry": { "type": "Point", "coordinates": [ 33.2173593, 0.4460505 ] } },
{ "type": "Feature", "properties": { "fid": 81, "name": "Jinja International Institute of Health Science", "amenity": "college", "operator:type": null, "addr:city": "Rubaga", "source": "www.ubos.org", "osm_id": 4066446005, "osm_type": "nodes" }, "geometry": { "type": "Point", "coordinates": [ 33.2184959, 0.4517591 ] } },
{ "type": "Feature", "properties": { "fid": 82, "name": "Jinja Seventh-day Adventist Primary School", "amenity": "primary school", "operator:type": "public", "addr:city": "Rubaga", "source": "www.ubos.org", "osm_id": 4066446007, "osm_type": "nodes" }, "geometry": { "type": "Point", "coordinates": [ 33.2162564, 0.4512671 ] } },
{ "type": "Feature", "properties": { "fid": 83, "name": "Joy Emmanuel Oasis Primary School", "amenity": "primary school", "operator:type": "private", "addr:city": "Rubaga", "source": "www.ubos.org", "osm_id": 4066446009, "osm_type": "nodes" }, "geometry": { "type": "Point", "coordinates": [ 33.217041, 0.455333 ] } },
{ "type": "Feature", "properties": { "fid": 84, "name": "Magwa Mixed Primary School", "amenity": "primary school", "operator:type": null, "addr:city": "Madhivani", "source": "www.ubos.org", "osm_id": 4066446019, "osm_type": "nodes" }, "geometry": { "type": "Point", "coordinates": [ 33.204803, 0.4403242 ] } },
{ "type": "Feature", "properties": { "fid": 85, "name": "Mill Hill Father's Mission", "amenity": "other", "operator:type": null, "addr:city": "Rubaga", "source": "www.ubos.org", "osm_id": 4066446021, "osm_type": "nodes" }, "geometry": { "type": "Point", "coordinates": [ 33.212731, 0.4465717 ] } },
{ "type": "Feature", "properties": { "fid": 86, "name": "Mpumudde Estate Primary School", "amenity": "primary school", "operator:type": "public", "addr:city": "Upland", "source": "www.ubos.org", "osm_id": 4066446022, "osm_type": "nodes" }, "geometry": { "type": "Point", "coordinates": [ 33.2131792, 0.4576525 ] } },
{ "type": "Feature", "properties": { "fid": 87, "name": "Kiira High School", "amenity": "secondary school", "operator:type": null, "addr:city": "Gabula", "source": "www.ubos.org", "osm_id": 4068203418, "osm_type": "nodes" }, "geometry": { "type": "Point", "coordinates": [ 33.2060081, 0.4278611 ] } },
{ "type": "Feature", "properties": { "fid": 88, "name": "Special Needs Primary School", "amenity": "primary school", "operator:type": null, "addr:city": "Spire Road", "source": "www.ubos.org", "osm_id": 4068203440, "osm_type": "nodes" }, "geometry": { "type": "Point", "coordinates": [ 33.2113734, 0.4225374 ] } },
{ "type": "Feature", "properties": { "fid": 89, "name": "Spire Road Primary School", "amenity": "primary school", "operator:type": null, "addr:city": "Spire Road", "source": "www.ubos.org", "osm_id": 4068203441, "osm_type": "nodes" }, "geometry": { "type": "Point", "coordinates": [ 33.2122115, 0.4242901 ] } },
{ "type": "Feature", "properties": { "fid": 90, "name": "Busoga Light College", "amenity": "college", "operator:type": null, "addr:city": "Kyagwe", "source": "www.ubos.org", "osm_id": 4068203407, "osm_type": "nodes" }, "geometry": { "type": "Point", "coordinates": [ 33.2008878, 0.4192595 ] } },
{ "type": "Feature", "properties": { "fid": 91, "name": "Aryain Academy", "amenity": "other", "operator:type": "private", "addr:city": "Kaitabawala", "source": "www.ubos.org", "osm_id": 4066445990, "osm_type": "nodes" }, "geometry": { "type": "Point", "coordinates": [ 33.1845418, 0.4690413 ] } },
{ "type": "Feature", "properties": { "fid": 92, "name": "Kyabirwa Primary School", "amenity": "primary school", "operator:type": "public", "addr:city": "Budondo", "source": "www.ubos.org", "osm_id": 1322251135, "osm_type": "nodes" }, "geometry": { "type": "Point", "coordinates": [ 33.1591755, 0.4979291 ] } },
{ "type": "Feature", "properties": { "fid": 93, "name": "Namizi Primary School", "amenity": "primary school", "operator:type": null, "addr:city": "Namizi West", "source": "www.ubos.org", "osm_id": 4064231795, "osm_type": "nodes" }, "geometry": { "type": "Point", "coordinates": [ 33.152351, 0.4988387 ] } },
{ "type": "Feature", "properties": { "fid": 94, "name": "Standrew Primary School", "amenity": "primary school", "operator:type": "private", "addr:city": "Buwenda -central", "source": "www.ubos.org", "osm_id": 4064255143, "osm_type": "nodes" }, "geometry": { "type": "Point", "coordinates": [ 33.1724663, 0.4769091 ] } },
{ "type": "Feature", "properties": { "fid": 95, "name": "Pearl Preschool", "amenity": "kindergarten", "operator:type": null, "addr:city": "Walukuba", "source": null, "osm_id": 4039853809, "osm_type": "nodes" }, "geometry": { "type": "Point", "coordinates": [ 33.2258632, 0.4459168 ] } },
{ "type": "Feature", "properties": { "fid": 96, "name": "Saint Kizito Creche Soweto Nursery School", "amenity": "kindergarten", "operator:type": "private", "addr:city": "Police Wing", "source": "www.ubos.org", "osm_id": 4069198243, "osm_type": "nodes" }, "geometry": { "type": "Point", "coordinates": [ 33.2302635, 0.4472309 ] } },
{ "type": "Feature", "properties": { "fid": 97, "name": "Nasru Islamic Nursery School", "amenity": "kindergarten", "operator:type": "private", "addr:city": "Rubaga", "source": "www.ubos.org", "osm_id": 4066446026, "osm_type": "nodes" }, "geometry": { "type": "Point", "coordinates": [ 33.218706, 0.4548657 ] } },
{ "type": "Feature", "properties": { "fid": 98, "name": "Good Shepherd Nursery School", "amenity": "kindergarten", "operator:type": null, "addr:city": "Grant Road", "source": "www.ubos.org", "osm_id": 4068203410, "osm_type": "nodes" }, "geometry": { "type": "Point", "coordinates": [ 33.2026253, 0.4250968 ] } },
{ "type": "Feature", "properties": { "fid": 99, "name": "Tower of Hope Academy Nursery School", "amenity": "kindergarten", "operator:type": "private", "addr:city": "Bujjagali", "source": "www.ubos.org", "osm_id": 4064231802, "osm_type": "nodes" }, "geometry": { "type": "Point", "coordinates": [ 33.1674938, 0.4939839 ] } },
{ "type": "Feature", "properties": { "fid": 100, "name": "Nile Management Training Center", "amenity": "college", "operator:type": null, "addr:city": "Jinja", "source": null, "osm_id": 4041833898, "osm_type": "nodes" }, "geometry": { "type": "Point", "coordinates": [ 33.2075604, 0.4362736 ] } },
{ "type": "Feature", "properties": { "fid": 102, "name": "Our Dad Elementary School", "amenity": "other", "operator:type": null, "addr:city": "Bugembe Town Council", "source": null, "osm_id": 4041781331, "osm_type": "nodes" }, "geometry": { "type": "Point", "coordinates": [ 33.2428722, 0.4698183 ] } },
{ "type": "Feature", "properties": { "fid": 103, "name": "Saint Paul's Primary School", "amenity": "primary school", "operator:type": "private", "addr:city": "Nakanyonyi Annex", "source": "www.ubos.org", "osm_id": 4041781339, "osm_type": "nodes" }, "geometry": { "type": "Point", "coordinates": [ 33.2429191, 0.4712379 ] } },
{ "type": "Feature", "properties": { "fid": 104, "name": "Bugembe Blue Primary School", "amenity": "primary school", "operator:type": "public", "addr:city": "School Cell", "source": "www.ubos.org", "osm_id": 4069196883, "osm_type": "nodes" }, "geometry": { "type": "Point", "coordinates": [ 33.2341299, 0.4641808 ] } },
{ "type": "Feature", "properties": { "fid": 105, "name": "Bugembe Institute Secondary School", "amenity": "secondary school", "operator:type": "private", "addr:city": "School Cell", "source": "www.ubos.org", "osm_id": 4069196885, "osm_type": "nodes" }, "geometry": { "type": "Point", "coordinates": [ 33.2332077, 0.4632063 ] } },
{ "type": "Feature", "properties": { "fid": 106, "name": "Day Spring Elementary Primary School", "amenity": "primary school", "operator:type": "private", "addr:city": "Wanyange Hill", "source": "www.ubos.org", "osm_id": 4069198192, "osm_type": "nodes" }, "geometry": { "type": "Point", "coordinates": [ 33.2561899, 0.4822261 ] } },
{ "type": "Feature", "properties": { "fid": 107, "name": "Good Heart Secondary School", "amenity": "secondary school", "operator:type": "private", "addr:city": "Wanyange Hill", "source": "www.ubos.org", "osm_id": 4069198198, "osm_type": "nodes" }, "geometry": { "type": "Point", "coordinates": [ 33.2477225, 0.4725585 ] } },
{ "type": "Feature", "properties": { "fid": 108, "name": "Hafizu Quran School", "amenity": "other", "operator:type": null, "addr:city": "School Cell", "source": "www.ubos.org", "osm_id": 4069198199, "osm_type": "nodes" }, "geometry": { "type": "Point", "coordinates": [ 33.2333358, 0.4640359 ] } },
{ "type": "Feature", "properties": { "fid": 109, "name": "Hidden Treasure Academy", "amenity": "other", "operator:type": "private", "addr:city": "Wanyange Lake", "source": "www.ubos.org", "osm_id": 4069198200, "osm_type": "nodes" }, "geometry": { "type": "Point", "coordinates": [ 33.2494272, 0.4631766 ] } },
{ "type": "Feature", "properties": { "fid": 110, "name": "Holy Cross Primary School", "amenity": "primary school", "operator:type": "private", "addr:city": "Stadium", "source": "www.ubos.org", "osm_id": 4069198201, "osm_type": "nodes" }, "geometry": { "type": "Point", "coordinates": [ 33.2358036, 0.4708348 ] } },
{ "type": "Feature", "properties": { "fid": 111, "name": "Lake View High School", "amenity": "secondary school", "operator:type": "private", "addr:city": "Stadium", "source": "www.ubos.org", "osm_id": 4069198214, "osm_type": "nodes" }, "geometry": { "type": "Point", "coordinates": [ 33.2360724, 0.4680207 ] } },
{ "type": "Feature", "properties": { "fid": 112, "name": "Standrew Primary School", "amenity": "primary school", "operator:type": "private", "addr:city": "Wanyange Hill", "source": "www.ubos.org", "osm_id": 4069198238, "osm_type": "nodes" }, "geometry": { "type": "Point", "coordinates": [ 33.2518827, 0.4740355 ] } },
{ "type": "Feature", "properties": { "fid": 113, "name": "Saint Florence Secondary School", "amenity": "secondary school", "operator:type": "private", "addr:city": "Obbo", "source": "www.ubos.org", "osm_id": 4069198240, "osm_type": "nodes" }, "geometry": { "type": "Point", "coordinates": [ 33.2310674, 0.472206 ] } },
{ "type": "Feature", "properties": { "fid": 114, "name": "Vision Training Centre", "amenity": "other", "operator:type": "private", "addr:city": "Wanyange Hill", "source": "www.ubos.org", "osm_id": 4069198247, "osm_type": "nodes" }, "geometry": { "type": "Point", "coordinates": [ 33.2430987, 0.4799423 ] } },
{ "type": "Feature", "properties": { "fid": 116, "name": "Wanyange Progressive Secondary School", "amenity": "secondary school", "operator:type": "private", "addr:city": "Wanyange Central", "source": "www.ubos.org", "osm_id": 4069198256, "osm_type": "nodes" }, "geometry": { "type": "Point", "coordinates": [ 33.2564012, 0.4737538 ] } },
{ "type": "Feature", "properties": { "fid": 117, "name": "Butembe Secondary School", "amenity": "secondary school", "operator:type": "public", "addr:city": "Mafubira", "source": "www.ubos.org", "osm_id": 4041740093, "osm_type": "nodes" }, "geometry": { "type": "Point", "coordinates": [ 33.2107742, 0.4681377 ] } },
{ "type": "Feature", "properties": { "fid": 118, "name": "Saint Monica Secondary School", "amenity": "secondary school", "operator:type": "private", "addr:city": "Makenke", "source": "www.ubos.org", "osm_id": 4066446036, "osm_type": "nodes" }, "geometry": { "type": "Point", "coordinates": [ 33.2031709, 0.4625257 ] } },
{ "type": "Feature", "properties": { "fid": 119, "name": "Jack & Jill Primary School", "amenity": "primary school", "operator:type": "private", "addr:city": "Namulesa", "source": "www.ubos.org", "osm_id": 4064337239, "osm_type": "nodes" }, "geometry": { "type": "Point", "coordinates": [ 33.2136752, 0.5001958 ] } },
{ "type": "Feature", "properties": { "fid": 120, "name": "Wanyange Nursery School", "amenity": "kindergarten", "operator:type": "private", "addr:city": "Wanyange Lake", "source": "www.ubos.org", "osm_id": 4069198254, "osm_type": "nodes" }, "geometry": { "type": "Point", "coordinates": [ 33.2453117, 0.4682989 ] } },
{ "type": "Feature", "properties": { "fid": 121, "name": "Kisima II Primary School", "amenity": "primary school", "operator:type": null, "addr:city": "Kisima II", "source": "www.ubos.org", "osm_id": 4069213339, "osm_type": "nodes" }, "geometry": { "type": "Point", "coordinates": [ 33.2660115, 0.4151778 ] } },
{ "type": "Feature", "properties": { "fid": 147, "name": "Buwagi Primary School", "amenity": "primary school", "operator:type": null, "addr:city": "Budondo", "source": null, "osm_id": 4041952337, "osm_type": "nodes" }, "geometry": { "type": "Point", "coordinates": [ 33.1596969, 0.5386952 ] } },
{ "type": "Feature", "properties": { "fid": 148, "name": "Kibibi Primary School", "amenity": "primary school", "operator:type": null, "addr:city": "Budondo", "source": null, "osm_id": 4041952349, "osm_type": "nodes" }, "geometry": { "type": "Point", "coordinates": [ 33.1225117, 0.5382715 ] } },
{ "type": "Feature", "properties": { "fid": 157, "name": "Lukolo Preparatory Primary School", "amenity": "primary school", "operator:type": "private", "addr:city": "Lukolo West", "source": "www.ubos.org", "osm_id": 4036003554, "osm_type": "nodes" }, "geometry": { "type": "Point", "coordinates": [ 33.1890385, 0.564495 ] } },
{ "type": "Feature", "properties": { "fid": 163, "name": "Nsuube Seventh-day Adventist School", "amenity": "other", "operator:type": "private", "addr:city": "Nsuube", "source": "www.ubos.org", "osm_id": 4036004593, "osm_type": "nodes" }, "geometry": { "type": "Point", "coordinates": [ 33.2223558, 0.5436778 ] } },
{ "type": "Feature", "properties": { "fid": 164, "name": "Saint Balikudembe Primary School", "amenity": "primary school", "operator:type": "private", "addr:city": "Bwase", "source": "www.ubos.org", "osm_id": 4036004606, "osm_type": "nodes" }, "geometry": { "type": "Point", "coordinates": [ 33.1201393, 0.5341537 ] } },
{ "type": "Feature", "properties": { "fid": 167, "name": "Saint Mary's Primary School", "amenity": "primary school", "operator:type": "private", "addr:city": "Kabowa Trc", "source": "www.ubos.org", "osm_id": 4036004619, "osm_type": "nodes" }, "geometry": { "type": "Point", "coordinates": [ 33.1420478, 0.5315278 ] } },
{ "type": "Feature", "properties": { "fid": 169, "name": "King of Kings Secondary School", "amenity": "secondary school", "operator:type": null, "addr:city": "Budondo", "source": null, "osm_id": 4041952350, "osm_type": "nodes" }, "geometry": { "type": "Point", "coordinates": [ 33.1505334, 0.5226575 ] } },
{ "type": "Feature", "properties": { "fid": 170, "name": "Victoria Bright Academy", "amenity": "other", "operator:type": null, "addr:city": "Budondo", "source": null, "osm_id": 4041952371, "osm_type": "nodes" }, "geometry": { "type": "Point", "coordinates": [ 33.1875164, 0.5021014 ] } },
{ "type": "Feature", "properties": { "fid": 171, "name": "Valley View Primary School", "amenity": "primary school", "operator:type": "private", "addr:city": "Nakabango", "source": "www.ubos.org", "osm_id": 4064337256, "osm_type": "nodes" }, "geometry": { "type": "Point", "coordinates": [ 33.2201851, 0.5205062 ] } },
{ "type": "Feature", "properties": { "fid": 172, "name": "Salle Learning Centre", "amenity": "other", "operator:type": "private", "addr:city": "Kivubuka A", "source": "www.ubos.org", "osm_id": 4064337255, "osm_type": "nodes" }, "geometry": { "type": "Point", "coordinates": [ 33.187225, 0.5136964 ] } },
{ "type": "Feature", "properties": { "fid": 179, "name": "Wanyange Primary School", "amenity": "primary school", "operator:type": null, "addr:city": null, "source": null, "osm_id": 2874006411, "osm_type": "nodes" }, "geometry": { "type": "Point", "coordinates": [ 33.26089, 0.4758379 ] } },
{ "type": "Feature", "properties": { "fid": 182, "name": "Saint Mary Nursery School", "amenity": "kindergarten", "operator:type": "private", "addr:city": "Buwenda-mataala", "source": "www.ubos.org", "osm_id": 4064255145, "osm_type": "nodes" }, "geometry": { "type": "Point", "coordinates": [ 33.1743347, 0.4743566 ] } },
{ "type": "Feature", "properties": { "fid": 183, "name": "King Willies Junior School", "amenity": "primary school", "operator:type": "private", "addr:city": "Kaitabawala", "source": "www.ubos.org", "osm_id": 4066446014, "osm_type": "nodes" }, "geometry": { "type": "Point", "coordinates": [ 33.1822434, 0.4672749 ] } },
{ "type": "Feature", "properties": { "fid": 186, "name": "Esubi", "amenity": "other", "operator:type": null, "addr:city": null, "source": null, "osm_id": 5454803522, "osm_type": "nodes" }, "geometry": { "type": "Point", "coordinates": [ 33.1588482, 0.4910272 ] } },
{ "type": "Feature", "properties": { "fid": 187, "name": "Soft Power Education", "amenity": "other", "operator:type": null, "addr:city": "Budondo", "source": null, "osm_id": 4041952368, "osm_type": "nodes" }, "geometry": { "type": "Point", "coordinates": [ 33.1620813, 0.4888057 ] } },
{ "type": "Feature", "properties": { "fid": 188, "name": "Children's Centre Kyabirwa Primary School", "amenity": "primary school", "operator:type": "private", "addr:city": "Kyabirwa", "source": "www.ubos.org", "osm_id": 1184053777, "osm_type": "nodes" }, "geometry": { "type": "Point", "coordinates": [ 33.1603655, 0.4872673 ] } },
{ "type": "Feature", "properties": { "fid": 189, "name": "Ibungu Primary School", "amenity": "primary school", "operator:type": "private", "addr:city": "Ibungu East", "source": "www.ubos.org", "osm_id": 4064231793, "osm_type": "nodes" }, "geometry": { "type": "Point", "coordinates": [ 33.1554537, 0.5251004 ] } },
{ "type": "Feature", "properties": { "fid": 190, "name": "Bususwa Primary School", "amenity": "primary school", "operator:type": "public", "addr:city": "Bususwa", "source": "www.ubos.org", "osm_id": 4036003490, "osm_type": "nodes" }, "geometry": { "type": "Point", "coordinates": [ 33.1024611, 0.5454162 ] } },
{ "type": "Feature", "properties": { "fid": 191, "name": "Kibibi Primary School", "amenity": "primary school", "operator:type": "public", "addr:city": "Namalemba", "source": "www.ubos.org", "osm_id": 4036003541, "osm_type": "nodes" }, "geometry": { "type": "Point", "coordinates": [ 33.1233032, 0.534615 ] } },
{ "type": "Feature", "properties": { "fid": 196, "name": "Saint Joan Primary School", "amenity": "primary school", "operator:type": "private", "addr:city": "Kizinga", "source": "www.ubos.org", "osm_id": 4036004609, "osm_type": "nodes" }, "geometry": { "type": "Point", "coordinates": [ 33.1373845, 0.5395265 ] } },
{ "type": "Feature", "properties": { "fid": 197, "name": "Saint John Primary School", "amenity": "primary school", "operator:type": "private", "addr:city": "Kizinga", "source": "www.ubos.org", "osm_id": 4036004611, "osm_type": "nodes" }, "geometry": { "type": "Point", "coordinates": [ 33.1392574, 0.5536242 ] } },
{ "type": "Feature", "properties": { "fid": 198, "name": "Trinity College Secondary School", "amenity": "secondary school", "operator:type": "private", "addr:city": "Kabowa Trc", "source": "www.ubos.org", "osm_id": 4036004628, "osm_type": "nodes" }, "geometry": { "type": "Point", "coordinates": [ 33.1395237, 0.5323846 ] } },
{ "type": "Feature", "properties": { "fid": 199, "name": "Uhud Islamic Primary School", "amenity": "primary school", "operator:type": "private", "addr:city": "Kizinga", "source": "www.ubos.org", "osm_id": 4036004630, "osm_type": "nodes" }, "geometry": { "type": "Point", "coordinates": [ 33.1389406, 0.5432568 ] } },
{ "type": "Feature", "properties": { "fid": 217, "name": "Standard Preparatory Nursery School", "amenity": "kindergarten", "operator:type": null, "addr:city": "Jinja Central Division", "source": null, "osm_id": 4040429894, "osm_type": "nodes" }, "geometry": { "type": "Point", "coordinates": [ 33.2075457, 0.4339413 ] } },
{ "type": "Feature", "properties": { "fid": 218, "name": "Saint Kizito Nursery School", "amenity": "kindergarten", "operator:type": "private", "addr:city": "Mpumudde West Zone C", "source": "www.ubos.org", "osm_id": 4066446035, "osm_type": "nodes" }, "geometry": { "type": "Point", "coordinates": [ 33.208402, 0.4597339 ] } },
{ "type": "Feature", "properties": { "fid": 219, "name": "Good Hope Nursery School", "amenity": "kindergarten", "operator:type": "private", "addr:city": "Mafubira B", "source": "www.ubos.org", "osm_id": 4066445999, "osm_type": "nodes" }, "geometry": { "type": "Point", "coordinates": [ 33.2137845, 0.4710434 ] } },
{ "type": "Feature", "properties": { "fid": 220, "name": "Good Shepherd Nursery School", "amenity": "kindergarten", "operator:type": "private", "addr:city": "Namulesa", "source": "www.ubos.org", "osm_id": 4064337236, "osm_type": "nodes" }, "geometry": { "type": "Point", "coordinates": [ 33.2054765, 0.5010494 ] } },
{ "type": "Feature", "properties": { "fid": 221, "name": "Nsaka University", "amenity": "university", "operator:type": "private", "addr:city": "Saka Busolo", "source": "www.ubos.org", "osm_id": 4066446027, "osm_type": "nodes" }, "geometry": { "type": "Point", "coordinates": [ 33.2066112, 0.4665354 ] } },
{ "type": "Feature", "properties": { "fid": 222, "name": "Bugembe Parents Primary School", "amenity": "primary school", "operator:type": "private", "addr:city": "Central", "source": "www.ubos.org", "osm_id": 4066445992, "osm_type": "nodes" }, "geometry": { "type": "Point", "coordinates": [ 33.2015643, 0.4642146 ] } },
{ "type": "Feature", "properties": { "fid": 223, "name": "Deseret Primary School", "amenity": "primary school", "operator:type": null, "addr:city": "Kyamagwa", "source": "www.ubos.org", "osm_id": 4066445995, "osm_type": "nodes" }, "geometry": { "type": "Point", "coordinates": [ 33.206446, 0.4819748 ] } },
{ "type": "Feature", "properties": { "fid": 224, "name": "Wakitaka Primary School", "amenity": "primary school", "operator:type": "public", "addr:city": "Mawuta", "source": "www.ubos.org", "osm_id": 4064337258, "osm_type": "nodes" }, "geometry": { "type": "Point", "coordinates": [ 33.2206675, 0.4883948 ] } },
{ "type": "Feature", "properties": { "fid": 225, "name": "Wakitaka Secondary School", "amenity": "secondary school", "operator:type": "public", "addr:city": "Mawuta", "source": "www.ubos.org", "osm_id": 4064337259, "osm_type": "nodes" }, "geometry": { "type": "Point", "coordinates": [ 33.2211295, 0.4897727 ] } },
{ "type": "Feature", "properties": { "fid": 226, "name": "Kiira Junior School", "amenity": "primary school", "operator:type": "private", "addr:city": "Wabulega B", "source": "www.ubos.org", "osm_id": 4064337241, "osm_type": "nodes" }, "geometry": { "type": "Point", "coordinates": [ 33.2078691, 0.49544 ] } },
{ "type": "Feature", "properties": { "fid": 229, "name": "Alpha Academy", "amenity": "other", "operator:type": null, "addr:city": "Kimaka/Mpumudde/Nalufenya Division", "source": null, "osm_id": 4040026305, "osm_type": "nodes" }, "geometry": { "type": "Point", "coordinates": [ 33.1985888, 0.44218 ] } },
{ "type": "Feature", "properties": { "fid": 230, "name": "Kimasa Primary School", "amenity": "primary school", "operator:type": "public", "addr:city": "Makenke", "source": "www.ubos.org", "osm_id": 4066446013, "osm_type": "nodes" }, "geometry": { "type": "Point", "coordinates": [ 33.2007072, 0.4621797 ] } },
{ "type": "Feature", "properties": { "fid": 231, "name": "Ashraf Islamic School", "amenity": "other", "operator:type": null, "addr:city": "Mvule", "source": "www.ubos.org", "osm_id": 4066445991, "osm_type": "nodes" }, "geometry": { "type": "Point", "coordinates": [ 33.2040555, 0.4438462 ] } },
{ "type": "Feature", "properties": { "fid": 232, "name": "Buwenda Primary School", "amenity": "primary school", "operator:type": null, "addr:city": "Buwenda-mataala", "source": "www.ubos.org", "osm_id": 4064255125, "osm_type": "nodes" }, "geometry": { "type": "Point", "coordinates": [ 33.1754257, 0.4678023 ] } },
{ "type": "Feature", "properties": { "fid": 233, "name": "Premier High School", "amenity": "secondary school", "operator:type": null, "addr:city": "Kaitabawala", "source": "www.ubos.org", "osm_id": 4066446028, "osm_type": "nodes" }, "geometry": { "type": "Point", "coordinates": [ 33.180429, 0.4652212 ] } },
{ "type": "Feature", "properties": { "fid": 234, "name": "Kimaka Guardian Community Primary School", "amenity": "primary school", "operator:type": "private", "addr:city": "Kimaka", "source": "www.ubos.org", "osm_id": 4066446012, "osm_type": "nodes" }, "geometry": { "type": "Point", "coordinates": [ 33.1854465, 0.4625016 ] } },
{ "type": "Feature", "properties": { "fid": 235, "name": "Kiira Primary School", "amenity": "primary school", "operator:type": null, "addr:city": "Ambercourt", "source": "www.ubos.org", "osm_id": 4040033256, "osm_type": "nodes" }, "geometry": { "type": "Point", "coordinates": [ 33.1925283, 0.4482941 ] } },
{ "type": "Feature", "properties": { "fid": 236, "name": "National Fisheries Resource Research Institute", "amenity": "college", "operator:type": null, "addr:city": "Nile Crescent", "source": "www.ubos.org", "osm_id": 4068203426, "osm_type": "nodes" }, "geometry": { "type": "Point", "coordinates": [ 33.2075683, 0.4167922 ] } },
{ "type": "Feature", "properties": { "fid": 237, "name": "Amani Baby Cottage", "amenity": "kindergarten", "operator:type": null, "addr:city": "Jinja", "source": null, "osm_id": 1014802535, "osm_type": "nodes" }, "geometry": { "type": "Point", "coordinates": [ 33.2084829, 0.4182207 ] } },
{ "type": "Feature", "properties": { "fid": 238, "name": "Kisima I Primary School", "amenity": "primary school", "operator:type": "public", "addr:city": "Kisima I", "source": "www.ubos.org", "osm_id": 4069213338, "osm_type": "nodes" }, "geometry": { "type": "Point", "coordinates": [ 33.2670694, 0.4270556 ] } },
{ "type": "Feature", "properties": { "fid": 239, "name": "Dream Africa School Jinja", "amenity": "other", "operator:type": null, "addr:city": "Spire Road", "source": null, "osm_id": 3065006277, "osm_type": "nodes" }, "geometry": { "type": "Point", "coordinates": [ 33.2111665, 0.421874 ] } },
{ "type": "Feature", "properties": { "fid": 240, "name": "Kampala University", "amenity": "university", "operator:type": null, "addr:city": "Spire Road", "source": "www.ubos.org", "osm_id": 4068203417, "osm_type": "nodes" }, "geometry": { "type": "Point", "coordinates": [ 33.212299, 0.4253839 ] } },
{ "type": "Feature", "properties": { "fid": 242, "name": "Mustard Seed Nursery School", "amenity": "kindergarten", "operator:type": null, "addr:city": "Spire Road", "source": "www.ubos.org", "osm_id": 4068203425, "osm_type": "nodes" }, "geometry": { "type": "Point", "coordinates": [ 33.2105124, 0.4215213 ] } },
{ "type": "Feature", "properties": { "fid": 244, "name": "Kyagera Primary School", "amenity": "primary school", "operator:type": null, "addr:city": "Budondo", "source": null, "osm_id": 4041952354, "osm_type": "nodes" }, "geometry": { "type": "Point", "coordinates": [ 33.1420219, 0.5315666 ] } },
{ "type": "Feature", "properties": { "fid": 245, "name": "S.O.U.L. Shack", "amenity": "other", "operator:type": null, "addr:city": null, "source": null, "osm_id": 1322250668, "osm_type": "nodes" }, "geometry": { "type": "Point", "coordinates": [ 33.1627909, 0.4879051 ] } },
{ "type": "Feature", "properties": { "fid": 246, "name": "Al-Swidiiq Islamic School", "amenity": "other", "operator:type": "public", "addr:city": "Namizi Central", "source": "www.ubos.org", "osm_id": 4041952327, "osm_type": "nodes" }, "geometry": { "type": "Point", "coordinates": [ 33.1599685, 0.5178483 ] } },
{ "type": "Feature", "properties": { "fid": 247, "name": "Kizinga Primary School", "amenity": "primary school", "operator:type": null, "addr:city": "Budondo", "source": null, "osm_id": 4041952352, "osm_type": "nodes" }, "geometry": { "type": "Point", "coordinates": [ 33.139193, 0.5535467 ] } },
{ "type": "Feature", "properties": { "fid": 249, "name": "Jifa Primary School", "amenity": "primary school", "operator:type": "private", "addr:city": "Ibungu West", "source": "www.ubos.org", "osm_id": 4036003527, "osm_type": "nodes" }, "geometry": { "type": "Point", "coordinates": [ 33.1538048, 0.5290677 ] } },
{ "type": "Feature", "properties": { "fid": 250, "name": "Kyomya Primary School", "amenity": "primary school", "operator:type": "public", "addr:city": "Kyomya West", "source": "www.ubos.org", "osm_id": 4036003548, "osm_type": "nodes" }, "geometry": { "type": "Point", "coordinates": [ 33.1735673, 0.5488685 ] } },
{ "type": "Feature", "properties": { "fid": 251, "name": "Lukolo Primary School", "amenity": "primary school", "operator:type": "public", "addr:city": "Lukolo West", "source": "www.ubos.org", "osm_id": 4036003555, "osm_type": "nodes" }, "geometry": { "type": "Point", "coordinates": [ 33.1844611, 0.5607769 ] } },
{ "type": "Feature", "properties": { "fid": 252, "name": "Jinja Progressive Secondary School", "amenity": "secondary school", "operator:type": "private", "addr:city": "Kamuli Road", "source": "www.ubos.org", "osm_id": 4066446006, "osm_type": "nodes" }, "geometry": { "type": "Point", "coordinates": [ 33.219268, 0.4605159 ] } },
{ "type": "Feature", "properties": { "fid": 253, "name": "Primary School", "amenity": "primary school", "operator:type": null, "addr:city": null, "source": "www.ubos.org", "osm_id": 4066446029, "osm_type": "nodes" }, "geometry": { "type": "Point", "coordinates": [ 33.216826, 0.473357 ] } },
{ "type": "Feature", "properties": { "fid": 254, "name": "Mafubira Primary School", "amenity": "primary school", "operator:type": "public", "addr:city": "Mafubira B", "source": "www.ubos.org", "osm_id": 4066446018, "osm_type": "nodes" }, "geometry": { "type": "Point", "coordinates": [ 33.2154372, 0.4742705 ] } },
{ "type": "Feature", "properties": { "fid": 255, "name": "Saint Joseph Nursery and Primary School", "amenity": "primary school", "operator:type": "private", "addr:city": "Kyamagwa", "source": "www.ubos.org", "osm_id": 4066446034, "osm_type": "nodes" }, "geometry": { "type": "Point", "coordinates": [ 33.2102566, 0.473763 ] } },
{ "type": "Feature", "properties": { "fid": 256, "name": "Toast Junior School", "amenity": "primary school", "operator:type": "private", "addr:city": "Mafubira B", "source": "www.ubos.org", "osm_id": 4066446040, "osm_type": "nodes" }, "geometry": { "type": "Point", "coordinates": [ 33.2136827, 0.4716243 ] } },
{ "type": "Feature", "properties": { "fid": 257, "name": "Namulesa Muslim Primary School", "amenity": "primary school", "operator:type": "public", "addr:city": "Namulesa", "source": "www.ubos.org", "osm_id": 4064337249, "osm_type": "nodes" }, "geometry": { "type": "Point", "coordinates": [ 33.2182419, 0.4994807 ] } },
{ "type": "Feature", "properties": { "fid": 258, "name": "Nagawa Memorial Primary School", "amenity": "primary school", "operator:type": "private", "addr:city": "Kanyogoga", "source": "www.ubos.org", "osm_id": 4069198228, "osm_type": "nodes" }, "geometry": { "type": "Point", "coordinates": [ 33.2288115, 0.4980533 ] } },
{ "type": "Feature", "properties": { "fid": 259, "name": "Agapao International Skills Centre", "amenity": "other", "operator:type": null, "addr:city": "Kamuli Road", "source": "www.ubos.org", "osm_id": 4066445989, "osm_type": "nodes" }, "geometry": { "type": "Point", "coordinates": [ 33.2165559, 0.4623674 ] } },
{ "type": "Feature", "properties": { "fid": 260, "name": "Glory Land Christian College", "amenity": "college", "operator:type": null, "addr:city": "Kamuli Road", "source": "www.ubos.org", "osm_id": 4066445997, "osm_type": "nodes" }, "geometry": { "type": "Point", "coordinates": [ 33.2166209, 0.4579914 ] } },
{ "type": "Feature", "properties": { "fid": 261, "name": "Mpumudde Vocational Rehabilitation Centre", "amenity": "other", "operator:type": null, "addr:city": "Upland", "source": "www.ubos.org", "osm_id": 4066446025, "osm_type": "nodes" }, "geometry": { "type": "Point", "coordinates": [ 33.2121535, 0.4573642 ] } },
{ "type": "Feature", "properties": { "fid": 262, "name": "Jinja Parent Senior School", "amenity": "other", "operator:type": null, "addr:city": "Oboja Road", "source": "www.ubos.org", "osm_id": 4068203414, "osm_type": "nodes" }, "geometry": { "type": "Point", "coordinates": [ 33.209467, 0.4235049 ] } },
{ "type": "Feature", "properties": { "fid": 263, "name": "Saint Jude Training Centre", "amenity": "other", "operator:type": null, "addr:city": "Gabula", "source": "www.ubos.org", "osm_id": 4068203434, "osm_type": "nodes" }, "geometry": { "type": "Point", "coordinates": [ 33.2050478, 0.4249426 ] } },
{ "type": "Feature", "properties": { "fid": 264, "name": "Vocational Centre For Excellence", "amenity": "other", "operator:type": null, "addr:city": "Gabula", "source": "www.ubos.org", "osm_id": 4068203445, "osm_type": "nodes" }, "geometry": { "type": "Point", "coordinates": [ 33.2064217, 0.4253768 ] } },
{ "type": "Feature", "properties": { "fid": 265, "name": "Victory Nile Primary School", "amenity": "primary school", "operator:type": "public", "addr:city": "Jinja Central Division", "source": "www.ubos.org", "osm_id": 4041588092, "osm_type": "nodes" }, "geometry": { "type": "Point", "coordinates": [ 33.2041507, 0.4263696 ] } },
{ "type": "Feature", "properties": { "fid": 266, "name": "Narambhai Road Primary School", "amenity": "primary school", "operator:type": null, "addr:city": "Jinja Central Division", "source": "www.ubos.org", "osm_id": 4041584286, "osm_type": "nodes" }, "geometry": { "type": "Point", "coordinates": [ 33.2078207, 0.4278836 ] } },
{ "type": "Feature", "properties": { "fid": 267, "name": "Kira High school", "amenity": "secondary school", "operator:type": null, "addr:city": null, "source": null, "osm_id": 1014800845, "osm_type": "nodes" }, "geometry": { "type": "Point", "coordinates": [ 33.2183966, 0.4486949 ] } },
{ "type": "Feature", "properties": { "fid": 268, "name": "Kiira High School", "amenity": "secondary school", "operator:type": "private", "addr:city": "Rubaga", "source": "www.ubos.org", "osm_id": 4066446010, "osm_type": "nodes" }, "geometry": { "type": "Point", "coordinates": [ 33.2183895, 0.4480266 ] } },
{ "type": "Feature", "properties": { "fid": 269, "name": "Good Shepherd Nursery School", "amenity": "kindergarten", "operator:type": "private", "addr:city": "Kyamagwa", "source": "www.ubos.org", "osm_id": 4066446001, "osm_type": "nodes" }, "geometry": { "type": "Point", "coordinates": [ 33.2106168, 0.4723556 ] } },
{ "type": "Feature", "properties": { "fid": 270, "name": "Little Angel Nursery School", "amenity": "kindergarten", "operator:type": "private", "addr:city": "Wabulenga A", "source": "www.ubos.org", "osm_id": 4064337243, "osm_type": "nodes" }, "geometry": { "type": "Point", "coordinates": [ 33.2139185, 0.4996595 ] } },
{ "type": "Feature", "properties": { "fid": 271, "name": "Aryan Nursery School", "amenity": "kindergarten", "operator:type": null, "addr:city": "Grant Road", "source": "www.ubos.org", "osm_id": 4068203402, "osm_type": "nodes" }, "geometry": { "type": "Point", "coordinates": [ 33.2054535, 0.4236175 ] } },
{ "type": "Feature", "properties": { "fid": 272, "name": "Little Angel Nursery School", "amenity": "kindergarten", "operator:type": "private", "addr:city": "Nile/rippon", "source": "www.ubos.org", "osm_id": 4068203420, "osm_type": "nodes" }, "geometry": { "type": "Point", "coordinates": [ 33.2044154, 0.4269914 ] } },
{ "type": "Feature", "properties": { "fid": 275, "name": "Lake View Secondary School", "amenity": "secondary school", "operator:type": "private", "addr:city": "Wanyange Hill", "source": "www.ubos.org", "osm_id": 4069198217, "osm_type": "nodes" }, "geometry": { "type": "Point", "coordinates": [ 33.2538131, 0.4756887 ] } },
{ "type": "Feature", "properties": { "fid": 276, "name": "Beam of Hope Vocational School", "amenity": "other", "operator:type": null, "addr:city": "Wanyange Central", "source": "www.ubos.org", "osm_id": 4069196882, "osm_type": "nodes" }, "geometry": { "type": "Point", "coordinates": [ 33.2534357, 0.4722547 ] } },
{ "type": "Feature", "properties": { "fid": 278, "name": "Busoga Junior School", "amenity": "primary school", "operator:type": "private", "addr:city": "Wanyange Hill", "source": "www.ubos.org", "osm_id": 4069196888, "osm_type": "nodes" }, "geometry": { "type": "Point", "coordinates": [ 33.2490033, 0.4734566 ] } },
{ "type": "Feature", "properties": { "fid": 280, "name": "Umuh Quran Primary School", "amenity": "primary school", "operator:type": null, "addr:city": "Babu/patel", "source": "www.ubos.org", "osm_id": 4066446044, "osm_type": "nodes" }, "geometry": { "type": "Point", "coordinates": [ 33.2198566, 0.4418146 ] } },
{ "type": "Feature", "properties": { "fid": 281, "name": "His Hope For The Future Nursery and Primary School", "amenity": "primary school", "operator:type": null, "addr:city": "Masese/Walukuba Division", "source": null, "osm_id": 4040066175, "osm_type": "nodes" }, "geometry": { "type": "Point", "coordinates": [ 33.2415819, 0.4410045 ] } },
{ "type": "Feature", "properties": { "fid": 282, "name": "Community Worship School", "amenity": "other", "operator:type": null, "addr:city": "Masese/Walukuba Division", "source": null, "osm_id": 4040066171, "osm_type": "nodes" }, "geometry": { "type": "Point", "coordinates": [ 33.242314, 0.4422467 ] } },
{ "type": "Feature", "properties": { "fid": 283, "name": "Glory Primary School", "amenity": "primary school", "operator:type": null, "addr:city": "Masese I", "source": "www.ubos.org", "osm_id": 4040066173, "osm_type": "nodes" }, "geometry": { "type": "Point", "coordinates": [ 33.2406627, 0.4460985 ] } },
{ "type": "Feature", "properties": { "fid": 284, "name": "Saint Nicholas Preparatory School", "amenity": "other", "operator:type": "public", "addr:city": "Rubaga", "source": "www.ubos.org", "osm_id": 4066446038, "osm_type": "nodes" }, "geometry": { "type": "Point", "coordinates": [ 33.2165556, 0.4456104 ] } },
{ "type": "Feature", "properties": { "fid": 285, "name": "Crested Crane Tourism Institute", "amenity": "college", "operator:type": null, "addr:city": "Nalufenya A", "source": "www.ubos.org", "osm_id": 4068203409, "osm_type": "nodes" }, "geometry": { "type": "Point", "coordinates": [ 33.1993949, 0.4371901 ] } },
{ "type": "Feature", "properties": { "fid": 286, "name": "Camillians", "amenity": "other", "operator:type": null, "addr:city": null, "source": null, "osm_id": 3087386501, "osm_type": "nodes" }, "geometry": { "type": "Point", "coordinates": [ 33.1966249, 0.4399915 ] } },
{ "type": "Feature", "properties": { "fid": 288, "name": "Kivubuka Primary School", "amenity": "primary school", "operator:type": null, "addr:city": "Budondo", "source": null, "osm_id": 4041952351, "osm_type": "nodes" }, "geometry": { "type": "Point", "coordinates": [ 33.1898483, 0.5039171 ] } },
{ "type": "Feature", "properties": { "fid": 289, "name": "Bugembe Methodist Nursery and Primary School", "amenity": "primary school", "operator:type": "private", "addr:city": "Nakanyonyi Annex", "source": "www.ubos.org", "osm_id": 4069196887, "osm_type": "nodes" }, "geometry": { "type": "Point", "coordinates": [ 33.2412704, 0.4682601 ] } },
{ "type": "Feature", "properties": { "fid": 290, "name": "Karistad Day Care", "amenity": "other", "operator:type": "private", "addr:city": "Stadium", "source": "www.ubos.org", "osm_id": 4069198211, "osm_type": "nodes" }, "geometry": { "type": "Point", "coordinates": [ 33.2355324, 0.4689548 ] } },
{ "type": "Feature", "properties": { "fid": 291, "name": "Vic View Primary School", "amenity": "primary school", "operator:type": null, "addr:city": "Bugembe Town Council", "source": null, "osm_id": 4041781342, "osm_type": "nodes" }, "geometry": { "type": "Point", "coordinates": [ 33.2365701, 0.4688943 ] } },
{ "type": "Feature", "properties": { "fid": 292, "name": "Bugembe El Shadai Primary School", "amenity": "primary school", "operator:type": "private", "addr:city": "Nakanyonyi Complex", "source": "www.ubos.org", "osm_id": 4069196884, "osm_type": "nodes" }, "geometry": { "type": "Point", "coordinates": [ 33.2365975, 0.4776127 ] } },
{ "type": "Feature", "properties": { "fid": 294, "name": "Jinja Preparatory Primary School", "amenity": "primary school", "operator:type": null, "addr:city": "Wanyange Central", "source": "www.ubos.org", "osm_id": 4069198206, "osm_type": "nodes" }, "geometry": { "type": "Point", "coordinates": [ 33.2496317, 0.4709807 ] } },
{ "type": "Feature", "properties": { "fid": 295, "name": "Nakanyonyi Girls Secondary School", "amenity": "secondary school", "operator:type": "private", "addr:city": "Wanyange Hill", "source": "www.ubos.org", "osm_id": 4069198229, "osm_type": "nodes" }, "geometry": { "type": "Point", "coordinates": [ 33.2464305, 0.4772074 ] } },
{ "type": "Feature", "properties": { "fid": 297, "name": "Masese Nursery School", "amenity": "kindergarten", "operator:type": null, "addr:city": "Masese I", "source": "www.ubos.org", "osm_id": 4069213340, "osm_type": "nodes" }, "geometry": { "type": "Point", "coordinates": [ 33.2384343, 0.436401 ] } },
{ "type": "Feature", "properties": { "fid": 298, "name": "Bujagali Trust YMCA Nursery School", "amenity": "kindergarten", "operator:type": null, "addr:city": "Madhivani", "source": "www.ubos.org", "osm_id": 4068203406, "osm_type": "nodes" }, "geometry": { "type": "Point", "coordinates": [ 33.2023489, 0.4384223 ] } },
{ "type": "Feature", "properties": { "fid": 299, "name": "Inebanto Nursery School", "amenity": "kindergarten", "operator:type": null, "addr:city": "Wanyange Lake", "source": "www.ubos.org", "osm_id": 4069198204, "osm_type": "nodes" }, "geometry": { "type": "Point", "coordinates": [ 33.2493912, 0.4624085 ] } },
{ "type": "Feature", "properties": { "fid": 300, "name": "Varsity Nursery School", "amenity": "kindergarten", "operator:type": null, "addr:city": "Bugembe Town Council", "source": null, "osm_id": 4041781341, "osm_type": "nodes" }, "geometry": { "type": "Point", "coordinates": [ 33.2426798, 0.4700881 ] } },
{ "type": "Feature", "properties": { "fid": 303, "name": "Day Care Primary School", "amenity": "primary school", "operator:type": "private", "addr:city": "Masese II", "source": "www.ubos.org", "osm_id": 4069198191, "osm_type": "nodes" }, "geometry": { "type": "Point", "coordinates": [ 33.229002, 0.4502609 ] } },
{ "type": "Feature", "properties": { "fid": 304, "name": "Dove Junior School", "amenity": "primary school", "operator:type": "private", "addr:city": "Wanyange Central", "source": "www.ubos.org", "osm_id": 4069198195, "osm_type": "nodes" }, "geometry": { "type": "Point", "coordinates": [ 33.244123, 0.4688667 ] } },
{ "type": "Feature", "properties": { "fid": 305, "name": "Nakanyonyi Primary School", "amenity": "primary school", "operator:type": "public", "addr:city": "Nakanyonyi Bukware", "source": "www.ubos.org", "osm_id": 4069198230, "osm_type": "nodes" }, "geometry": { "type": "Point", "coordinates": [ 33.2416393, 0.4756339 ] } },
{ "type": "Feature", "properties": { "fid": 306, "name": "Pic Hill Primary School", "amenity": "primary school", "operator:type": "private", "addr:city": "Wanyange Lake", "source": "www.ubos.org", "osm_id": 4069198235, "osm_type": "nodes" }, "geometry": { "type": "Point", "coordinates": [ 33.2457113, 0.4672351 ] } },
{ "type": "Feature", "properties": { "fid": 307, "name": "Rima High School", "amenity": "secondary school", "operator:type": "private", "addr:city": "Wanyange Hill", "source": "www.ubos.org", "osm_id": 4069198237, "osm_type": "nodes" }, "geometry": { "type": "Point", "coordinates": [ 33.2589187, 0.4814806 ] } },
{ "type": "Feature", "properties": { "fid": 308, "name": "Walukuba East Primary School", "amenity": "primary school", "operator:type": "private", "addr:city": "School", "source": "www.ubos.org", "osm_id": 4069198252, "osm_type": "nodes" }, "geometry": { "type": "Point", "coordinates": [ 33.2268937, 0.4426008 ] } },
{ "type": "Feature", "properties": { "fid": 309, "name": "Wanyange Teacher's College Primary", "amenity": "primary school", "operator:type": "public", "addr:city": "Wanyange Central", "source": "www.ubos.org", "osm_id": 4069198257, "osm_type": "nodes" }, "geometry": { "type": "Point", "coordinates": [ 33.2586681, 0.4751381 ] } },
{ "type": "Feature", "properties": { "fid": 310, "name": "Lake Side Primary School", "amenity": "primary school", "operator:type": null, "addr:city": "Masese I", "source": "www.ubos.org", "osm_id": 4040066177, "osm_type": "nodes" }, "geometry": { "type": "Point", "coordinates": [ 33.2391645, 0.4388132 ] } },
{ "type": "Feature", "properties": { "fid": 311, "name": "Iqra Secondary School", "amenity": "secondary school", "operator:type": null, "addr:city": "Zabef", "source": "www.ubos.org", "osm_id": 4068203411, "osm_type": "nodes" }, "geometry": { "type": "Point", "coordinates": [ 33.2213263, 0.4377664 ] } },
{ "type": "Feature", "properties": { "fid": 312, "name": "Jinja Senior Secondary School", "amenity": "secondary school", "operator:type": "public", "addr:city": "Madhivani", "source": "www.ubos.org", "osm_id": 4068203415, "osm_type": "nodes" }, "geometry": { "type": "Point", "coordinates": [ 33.2049219, 0.4357318 ] } },
{ "type": "Feature", "properties": { "fid": 313, "name": "Our Lady of Fatima Parish", "amenity": "other", "operator:type": null, "addr:city": "Nile/rippon", "source": "www.ubos.org", "osm_id": 4068203429, "osm_type": "nodes" }, "geometry": { "type": "Point", "coordinates": [ 33.203838, 0.4259369 ] } },
{ "type": "Feature", "properties": { "fid": 314, "name": "Walukuba West Primary School", "amenity": "primary school", "operator:type": "public", "addr:city": "Zabef", "source": "www.ubos.org", "osm_id": 4068203446, "osm_type": "nodes" }, "geometry": { "type": "Point", "coordinates": [ 33.219362, 0.4368092 ] } },
{ "type": "Feature", "properties": { "fid": 315, "name": "Buwenda Pre-primary School", "amenity": "kindergarten", "operator:type": "private", "addr:city": "Buwenda -central", "source": "www.ubos.org", "osm_id": 4064255124, "osm_type": "nodes" }, "geometry": { "type": "Point", "coordinates": [ 33.1728235, 0.4778891 ] } },
{ "type": "Feature", "properties": { "fid": 316, "name": "Glorious Nursery School", "amenity": "kindergarten", "operator:type": null, "addr:city": "Bugembe Town Council", "source": null, "osm_id": 4041781318, "osm_type": "nodes" }, "geometry": { "type": "Point", "coordinates": [ 33.2286492, 0.4684318 ] } },
{ "type": "Feature", "properties": { "fid": 317, "name": "Answering For The Children Nursery School", "amenity": "kindergarten", "operator:type": "private", "addr:city": "Police Wing", "source": "www.ubos.org", "osm_id": 4069196881, "osm_type": "nodes" }, "geometry": { "type": "Point", "coordinates": [ 33.2315249, 0.4444181 ] } },
{ "type": "Feature", "properties": { "fid": 321, "name": "Namalemba Primary School", "amenity": "primary school", "operator:type": null, "addr:city": "Budondo", "source": null, "osm_id": 4041952365, "osm_type": "nodes" }, "geometry": { "type": "Point", "coordinates": [ 33.1189125, 0.53517 ] } },
{ "type": "Feature", "properties": { "fid": 322, "name": "Saint Paul Primary School", "amenity": "primary school", "operator:type": "public", "addr:city": "Buyala A", "source": "www.ubos.org", "osm_id": 4064231800, "osm_type": "nodes" }, "geometry": { "type": "Point", "coordinates": [ 33.1374404, 0.5153618 ] } },
{ "type": "Feature", "properties": { "fid": 323, "name": "Trinity College Buwagi", "amenity": "college", "operator:type": null, "addr:city": "Budondo", "source": null, "osm_id": 4041952370, "osm_type": "nodes" }, "geometry": { "type": "Point", "coordinates": [ 33.1395219, 0.5322864 ] } },
{ "type": "Feature", "properties": { "fid": 324, "name": "Buyala Primary School", "amenity": "primary school", "operator:type": null, "addr:city": "Budondo", "source": "www.ubos.org", "osm_id": 4041952339, "osm_type": "nodes" }, "geometry": { "type": "Point", "coordinates": [ 33.1551127, 0.5220433 ] } },
{ "type": "Feature", "properties": { "fid": 325, "name": "Budondo Primary School", "amenity": "primary school", "operator:type": "private", "addr:city": "Budondo", "source": "www.ubos.org", "osm_id": 4041952333, "osm_type": "nodes" }, "geometry": { "type": "Point", "coordinates": [ 33.1618029, 0.5148771 ] } },
{ "type": "Feature", "properties": { "fid": 326, "name": "Sannidina Primary School", "amenity": "primary school", "operator:type": "private", "addr:city": "Namizi West", "source": "www.ubos.org", "osm_id": 4064231801, "osm_type": "nodes" }, "geometry": { "type": "Point", "coordinates": [ 33.1551094, 0.5093411 ] } },
{ "type": "Feature", "properties": { "fid": 327, "name": "East Secondary School", "amenity": "secondary school", "operator:type": "private", "addr:city": "Ibungu East", "source": "www.ubos.org", "osm_id": 4041952341, "osm_type": "nodes" }, "geometry": { "type": "Point", "coordinates": [ 33.1565028, 0.5254386 ] } },
{ "type": "Feature", "properties": { "fid": 329, "name": "Saint Stephen Secondary School Budondo", "amenity": "secondary school", "operator:type": "private", "addr:city": "Budondo", "source": "www.ubos.org", "osm_id": 4041952367, "osm_type": "nodes" }, "geometry": { "type": "Point", "coordinates": [ 33.1614032, 0.5133513 ] } },
{ "type": "Feature", "properties": { "fid": 330, "name": "Amy Memoral College", "amenity": "college", "operator:type": null, "addr:city": "Budondo", "source": null, "osm_id": 4041952328, "osm_type": "nodes" }, "geometry": { "type": "Point", "coordinates": [ 33.1698178, 0.5459381 ] } },
{ "type": "Feature", "properties": { "fid": 338, "name": "Kagera Primary School", "amenity": "primary school", "operator:type": "private", "addr:city": "Kagera Kidiope", "source": "www.ubos.org", "osm_id": 4036003535, "osm_type": "nodes" }, "geometry": { "type": "Point", "coordinates": [ 33.1780368, 0.5342685 ] } },
{ "type": "Feature", "properties": { "fid": 351, "name": "Buyala Nursery School", "amenity": "kindergarten", "operator:type": "private", "addr:city": "Buyala C", "source": "www.ubos.org", "osm_id": 4064171383, "osm_type": "nodes" }, "geometry": { "type": "Point", "coordinates": [ 33.1284735, 0.5166071 ] } },
{ "type": "Feature", "properties": { "fid": 352, "name": "Entenda Nursery School", "amenity": "kindergarten", "operator:type": "private", "addr:city": "Kyomya East", "source": "www.ubos.org", "osm_id": 4036003509, "osm_type": "nodes" }, "geometry": { "type": "Point", "coordinates": [ 33.1669786, 0.5605179 ] } },
{ "type": "Feature", "properties": { "fid": 354, "name": "Karugami Primary School", "amenity": "primary school", "operator:type": "public", "addr:city": "Kalungami", "source": "www.ubos.org", "osm_id": 4069198212, "osm_type": "nodes" }, "geometry": { "type": "Point", "coordinates": [ 33.2416607, 0.5057913 ] } },
{ "type": "Feature", "properties": { "fid": 355, "name": "Nakabango Junior School", "amenity": "primary school", "operator:type": "private", "addr:city": "Nakabango", "source": "www.ubos.org", "osm_id": 4064337246, "osm_type": "nodes" }, "geometry": { "type": "Point", "coordinates": [ 33.2190548, 0.5080192 ] } },
{ "type": "Feature", "properties": { "fid": 356, "name": "Lwanda High School", "amenity": "secondary school", "operator:type": "private", "addr:city": "Lwanda", "source": "www.ubos.org", "osm_id": 4064337244, "osm_type": "nodes" }, "geometry": { "type": "Point", "coordinates": [ 33.2205919, 0.5247272 ] } },
{ "type": "Feature", "properties": { "fid": 357, "name": "Creamland Junior School", "amenity": "kindergarten", "operator:type": "private", "addr:city": "Lwanda", "source": "www.ubos.org", "osm_id": 4036003507, "osm_type": "nodes" }, "geometry": { "type": "Point", "coordinates": [ 33.221041, 0.5280159 ] } },
{ "type": "Feature", "properties": { "fid": 358, "name": "Gorryland Nursery School", "amenity": "kindergarten", "operator:type": null, "addr:city": "Lwanda", "source": "www.ubos.org", "osm_id": 4035770118, "osm_type": "nodes" }, "geometry": { "type": "Point", "coordinates": [ 33.2258213, 0.5301248 ] } },
{ "type": "Feature", "properties": { "fid": 364, "name": "Hudah Islamic Centre", "amenity": "other", "operator:type": null, "addr:city": "Budondo", "source": null, "osm_id": 4041952343, "osm_type": "nodes" }, "geometry": { "type": "Point", "coordinates": [ 33.1808965, 0.5020314 ] } },
{ "type": "Feature", "properties": { "fid": 365, "name": "Day star Nursery and Preschool", "amenity": "kindergarten", "operator:type": null, "addr:city": "Masese/Walukuba Division", "source": "www.ubos.org", "osm_id": 4039853799, "osm_type": "nodes" }, "geometry": { "type": "Point", "coordinates": [ 33.2238721, 0.4462947 ] } },
{ "type": "Feature", "properties": { "fid": 366, "name": "Mpumudde Methodist Primary School", "amenity": "primary school", "operator:type": "public", "addr:city": "Mpumudde West Zone C", "source": "www.ubos.org", "osm_id": 4066446024, "osm_type": "nodes" }, "geometry": { "type": "Point", "coordinates": [ 33.2051918, 0.4601772 ] } },
{ "type": "Feature", "properties": { "fid": 377, "name": "Little Stars Daycare & Nursery School", "amenity": "kindergarten", "operator:type": null, "addr:city": "Jinja", "source": null, "osm_id": 4041833893, "osm_type": "nodes" }, "geometry": { "type": "Point", "coordinates": [ 33.2071182, 0.4355463 ] } },
{ "type": "Feature", "properties": { "fid": 380, "name": "Joan Jordan Memorial School Kizinga", "amenity": "other", "operator:type": null, "addr:city": "Budondo", "source": null, "osm_id": 4041952346, "osm_type": "nodes" }, "geometry": { "type": "Point", "coordinates": [ 33.1372774, 0.5396093 ] } },
{ "type": "Feature", "properties": { "fid": 381, "name": "Kabibi College Secondary School", "amenity": "secondary school", "operator:type": "public", "addr:city": "Namalemba", "source": "www.ubos.org", "osm_id": 4036003533, "osm_type": "nodes" }, "geometry": { "type": "Point", "coordinates": [ 33.1226886, 0.5383059 ] } },
{ "type": "Feature", "properties": { "fid": 382, "name": "Harding Academy Christian Secondary School", "amenity": "secondary school", "operator:type": "private", "addr:city": "Nawangoma", "source": "www.ubos.org", "osm_id": 4036003518, "osm_type": "nodes" }, "geometry": { "type": "Point", "coordinates": [ 33.1849458, 0.5378295 ] } },
{ "type": "Feature", "properties": { "fid": 383, "name": "Kabowa Progressive Primary School", "amenity": "primary school", "operator:type": null, "addr:city": "Kabowa Trc", "source": "www.ubos.org", "osm_id": 4036003534, "osm_type": "nodes" }, "geometry": { "type": "Point", "coordinates": [ 33.1382525, 0.5306699 ] } },
{ "type": "Feature", "properties": { "fid": 384, "name": "New Recovery Primary School", "amenity": "primary school", "operator:type": "private", "addr:city": "Wanyange Central", "source": "www.ubos.org", "osm_id": 4069198232, "osm_type": "nodes" }, "geometry": { "type": "Point", "coordinates": [ 33.2592056, 0.4766335 ] } },
{ "type": "Feature", "properties": { "fid": 385, "name": "Light Nursery and Primary School", "amenity": "primary school", "operator:type": "private", "addr:city": "Budondo", "source": "www.ubos.org", "osm_id": 4041952356, "osm_type": "nodes" }, "geometry": { "type": "Point", "coordinates": [ 33.1661828, 0.5035796 ] } },
{ "type": "Feature", "properties": { "fid": 386, "name": "Saint Maria Junior School", "amenity": "primary school", "operator:type": "private", "addr:city": "Wakitaka", "source": "www.ubos.org", "osm_id": 4064337252, "osm_type": "nodes" }, "geometry": { "type": "Point", "coordinates": [ 33.2111027, 0.4878539 ] } },
{ "type": "Feature", "properties": { "fid": 393, "name": "Computer laboratory 3", "amenity": "other", "operator:type": null, "addr:city": null, "source": null, "osm_id": 5775144356, "osm_type": "nodes" }, "geometry": { "type": "Point", "coordinates": [ 33.2020853, 0.4311759 ] } },
{ "type": "Feature", "properties": { "fid": 394, "name": "Kiira Junior Preparatory School", "amenity": "primary school", "operator:type": null, "addr:city": null, "source": null, "osm_id": 3087362144, "osm_type": "nodes" }, "geometry": { "type": "Point", "coordinates": [ 33.1982314, 0.4395668 ] } },
{ "type": "Feature", "properties": { "fid": 395, "name": "International Institute of Health Sciences", "amenity": "college", "operator:type": null, "addr:city": "Nalufenya B", "source": "www.ubos.org", "osm_id": 4066446002, "osm_type": "nodes" }, "geometry": { "type": "Point", "coordinates": [ 33.1976028, 0.4398487 ] } },
{ "type": "Feature", "properties": { "fid": 396, "name": "Mpumude Seed Secondary School", "amenity": "secondary school", "operator:type": null, "addr:city": "Kimaka/Mpumudde/Nalufenya Division", "source": null, "osm_id": 4040033260, "osm_type": "nodes" }, "geometry": { "type": "Point", "coordinates": [ 33.1912975, 0.4493443 ] } },
{ "type": "Feature", "properties": { "fid": 397, "name": "Lakeside Academy", "amenity": "other", "operator:type": "private", "addr:city": "Wanyange Lake", "source": "www.ubos.org", "osm_id": 4069198218, "osm_type": "nodes" }, "geometry": { "type": "Point", "coordinates": [ 33.2513271, 0.4702613 ] } },
{ "type": "Feature", "properties": { "fid": 398, "name": "Saint Francis Nursery And Primary School", "amenity": "primary school", "operator:type": null, "addr:city": "Masese/Walukuba Division", "source": null, "osm_id": 4040066184, "osm_type": "nodes" }, "geometry": { "type": "Point", "coordinates": [ 33.2386744, 0.4372547 ] } },
{ "type": "Feature", "properties": { "fid": 399, "name": "Masese Girls Boarding Secondary School", "amenity": "secondary school", "operator:type": null, "addr:city": "Masese I", "source": "www.ubos.org", "osm_id": 4040066180, "osm_type": "nodes" }, "geometry": { "type": "Point", "coordinates": [ 33.2425857, 0.4461658 ] } },
{ "type": "Feature", "properties": { "fid": 400, "name": "Davis Christian Academy", "amenity": "kindergarten", "operator:type": null, "addr:city": "Kimaka/Mpumudde/Nalufenya Division", "source": null, "osm_id": 4040026306, "osm_type": "nodes" }, "geometry": { "type": "Point", "coordinates": [ 33.2033736, 0.4273991 ] } },
{ "type": "Feature", "properties": { "fid": 401, "name": "Little Learners Kindergarten", "amenity": "kindergarten", "operator:type": null, "addr:city": "Kimaka/Mpumudde/Nalufenya Division", "source": null, "osm_id": 4040033257, "osm_type": "nodes" }, "geometry": { "type": "Point", "coordinates": [ 33.1946397, 0.4386537 ] } },
{ "type": "Feature", "properties": { "fid": 402, "name": "Nursery School", "amenity": "kindergarten", "operator:type": null, "addr:city": "Kisima I", "source": "www.ubos.org", "osm_id": 4069213341, "osm_type": "nodes" }, "geometry": { "type": "Point", "coordinates": [ 33.2662434, 0.4276713 ] } },
{ "type": "Feature", "properties": { "fid": 403, "name": "Catholic School For Training Fathers", "amenity": "other", "operator:type": null, "addr:city": "Stadium", "source": "www.ubos.org", "osm_id": 4069198189, "osm_type": "nodes" }, "geometry": { "type": "Point", "coordinates": [ 33.2369082, 0.468599 ] } },
{ "type": "Feature", "properties": { "fid": 404, "name": "Queen Of Apostles Philosopical Centre", "amenity": "other", "operator:type": null, "addr:city": "Rubaga", "source": "www.ubos.org", "osm_id": 4066446030, "osm_type": "nodes" }, "geometry": { "type": "Point", "coordinates": [ 33.2162933, 0.4480777 ] } },
{ "type": "Feature", "properties": { "fid": 405, "name": "Christian Vision Ministries Rope Technical Institute", "amenity": "college", "operator:type": null, "addr:city": "Masese/Walukuba Division", "source": null, "osm_id": 4040066170, "osm_type": "nodes" }, "geometry": { "type": "Point", "coordinates": [ 33.2330216, 0.4487461 ] } },
{ "type": "Feature", "properties": { "fid": 406, "name": "Mass Co Education Primary School", "amenity": "primary school", "operator:type": null, "addr:city": "Masese/Walukuba Division", "source": null, "osm_id": 4039853805, "osm_type": "nodes" }, "geometry": { "type": "Point", "coordinates": [ 33.2267459, 0.4534853 ] } },
{ "type": "Feature", "properties": { "fid": 407, "name": "Jollen Nursery Teacher Training Centre", "amenity": "other", "operator:type": null, "addr:city": "Commercial", "source": "www.ubos.org", "osm_id": 4066446008, "osm_type": "nodes" }, "geometry": { "type": "Point", "coordinates": [ 33.2115684, 0.4601152 ] } },
{ "type": "Feature", "properties": { "fid": 408, "name": "Railway Nursery and Primary School", "amenity": "primary school", "operator:type": "private", "addr:city": "Mafubira B", "source": "www.ubos.org", "osm_id": 4066446031, "osm_type": "nodes" }, "geometry": { "type": "Point", "coordinates": [ 33.2210397, 0.4696057 ] } },
{ "type": "Feature", "properties": { "fid": 409, "name": "AIDS Orphanage Education Trust Primary School", "amenity": "primary school", "operator:type": "private", "addr:city": "Buwekula", "source": "www.ubos.org", "osm_id": 4069196880, "osm_type": "nodes" }, "geometry": { "type": "Point", "coordinates": [ 33.2283771, 0.4747505 ] } },
{ "type": "Feature", "properties": { "fid": 410, "name": "Mother Kevin Senior Secondary School", "amenity": "secondary school", "operator:type": null, "addr:city": "Masese/Walukuba Division", "source": "www.ubos.org", "osm_id": 3838043640, "osm_type": "nodes" }, "geometry": { "type": "Point", "coordinates": [ 33.2254954, 0.4448411 ] } },
{ "type": "Feature", "properties": { "fid": 411, "name": "Help Primary School", "amenity": "primary school", "operator:type": null, "addr:city": "Jinja", "source": null, "osm_id": 4039853801, "osm_type": "nodes" }, "geometry": { "type": "Point", "coordinates": [ 33.2308965, 0.4437036 ] } },
{ "type": "Feature", "properties": { "fid": 412, "name": "Medical Laboratory Training School", "amenity": "other", "operator:type": null, "addr:city": "Kyagwe", "source": "www.ubos.org", "osm_id": 4041584284, "osm_type": "nodes" }, "geometry": { "type": "Point", "coordinates": [ 33.2027704, 0.4203365 ] } },
{ "type": "Feature", "properties": { "fid": 413, "name": "Victory Family Centre", "amenity": "other", "operator:type": null, "addr:city": "Spire Road", "source": "www.ubos.org", "osm_id": 4068203444, "osm_type": "nodes" }, "geometry": { "type": "Point", "coordinates": [ 33.211902, 0.4216447 ] } },
{ "type": "Feature", "properties": { "fid": 414, "name": "Anex Spire Road Primary School for the Blind", "amenity": "primary school", "operator:type": null, "addr:city": null, "source": null, "osm_id": 3065006276, "osm_type": "nodes" }, "geometry": { "type": "Point", "coordinates": [ 33.2113704, 0.4226348 ] } },
{ "type": "Feature", "properties": { "fid": 415, "name": "Aryan School", "amenity": "other", "operator:type": null, "addr:city": null, "source": null, "osm_id": 1014802547, "osm_type": "nodes" }, "geometry": { "type": "Point", "coordinates": [ 33.2059018, 0.4234469 ] } },
{ "type": "Feature", "properties": { "fid": 416, "name": "Nile Vocational Institute", "amenity": "college", "operator:type": null, "addr:city": "Factory", "source": "www.ubos.org", "osm_id": 4068203428, "osm_type": "nodes" }, "geometry": { "type": "Point", "coordinates": [ 33.2182796, 0.4344354 ] } },
{ "type": "Feature", "properties": { "fid": 417, "name": "Horizon College Jinja", "amenity": "kindergarten", "operator:type": null, "addr:city": "Walukuba", "source": null, "osm_id": 4039853802, "osm_type": "nodes" }, "geometry": { "type": "Point", "coordinates": [ 33.2195193, 0.4395319 ] } },
{ "type": "Feature", "properties": { "fid": 418, "name": "Uganda Baptist Seminary Jinja", "amenity": "college", "operator:type": null, "addr:city": "Rubaga", "source": "www.ubos.org", "osm_id": 2872309871, "osm_type": "nodes" }, "geometry": { "type": "Point", "coordinates": [ 33.2139193, 0.4454606 ] } },
{ "type": "Feature", "properties": { "fid": 421, "name": "Katende Bright Primary School", "amenity": "primary school", "operator:type": "private", "addr:city": "Bugembe", "source": "www.ubos.org", "osm_id": 4041781323, "osm_type": "nodes" }, "geometry": { "type": "Point", "coordinates": [ 33.2325751, 0.4660048 ] } },
{ "type": "Feature", "properties": { "fid": 422, "name": "Bugembe Institute Primary School", "amenity": "primary school", "operator:type": "private", "addr:city": "School Cell", "source": "www.ubos.org", "osm_id": 4069196886, "osm_type": "nodes" }, "geometry": { "type": "Point", "coordinates": [ 33.2332712, 0.4622411 ] } },
{ "type": "Feature", "properties": { "fid": 423, "name": "Wanyange Primary School", "amenity": "primary school", "operator:type": "public", "addr:city": "Wanyange Central", "source": "www.ubos.org", "osm_id": 4069198255, "osm_type": "nodes" }, "geometry": { "type": "Point", "coordinates": [ 33.2574451, 0.4740539 ] } },
{ "type": "Feature", "properties": { "fid": 424, "name": "Kirinya Prisons Primary School", "amenity": "primary school", "operator:type": null, "addr:city": "Kirinya Prisons (special Area)", "source": "www.ubos.org", "osm_id": 4069213337, "osm_type": "nodes" }, "geometry": { "type": "Point", "coordinates": [ 33.2259472, 0.4217888 ] } },
{ "type": "Feature", "properties": { "fid": 425, "name": "Uganda Railways Primary School", "amenity": "primary school", "operator:type": null, "addr:city": "Loco", "source": "www.ubos.org", "osm_id": 4068203443, "osm_type": "nodes" }, "geometry": { "type": "Point", "coordinates": [ 33.2156628, 0.4192074 ] } },
{ "type": "Feature", "properties": { "fid": 426, "name": "Jinja Central Boarding Primary School", "amenity": "primary school", "operator:type": "private", "addr:city": "Kamuli Road", "source": "www.ubos.org", "osm_id": 4066446003, "osm_type": "nodes" }, "geometry": { "type": "Point", "coordinates": [ 33.2197375, 0.4637604 ] } },
{ "type": "Feature", "properties": { "fid": 427, "name": "Jinja College School", "amenity": "college", "operator:type": null, "addr:city": "Rubaga", "source": "www.ubos.org", "osm_id": 4066446004, "osm_type": "nodes" }, "geometry": { "type": "Point", "coordinates": [ 33.213702, 0.4482944 ] } },
{ "type": "Feature", "properties": { "fid": 428, "name": "Makerere University Business School Jinja", "amenity": "university", "operator:type": null, "addr:city": "Madhivani", "source": "www.ubos.org", "osm_id": 4066446020, "osm_type": "nodes" }, "geometry": { "type": "Point", "coordinates": [ 33.2011608, 0.4400101 ] } },
{ "type": "Feature", "properties": { "fid": 429, "name": "Mpumudde High School", "amenity": "secondary school", "operator:type": "private", "addr:city": "Kamuli Road", "source": "www.ubos.org", "osm_id": 4066446023, "osm_type": "nodes" }, "geometry": { "type": "Point", "coordinates": [ 33.2177195, 0.4599281 ] } },
{ "type": "Feature", "properties": { "fid": 430, "name": "Saint Martha's College", "amenity": "college", "operator:type": "private", "addr:city": "Namulesa", "source": "www.ubos.org", "osm_id": 4064337253, "osm_type": "nodes" }, "geometry": { "type": "Point", "coordinates": [ 33.2206948, 0.5046829 ] } },
{ "type": "Feature", "properties": { "fid": 431, "name": "Lindah Daycare Centre", "amenity": "kindergarten", "operator:type": null, "addr:city": "Bugembe Town Council", "source": null, "osm_id": 4041781327, "osm_type": "nodes" }, "geometry": { "type": "Point", "coordinates": [ 33.2387731, 0.4702634 ] } },
{ "type": "Feature", "properties": { "fid": 432, "name": "Saint Isaac Nursery School", "amenity": "kindergarten", "operator:type": "private", "addr:city": "Kanyogoga", "source": "www.ubos.org", "osm_id": 4069198241, "osm_type": "nodes" }, "geometry": { "type": "Point", "coordinates": [ 33.2380761, 0.4962549 ] } },
{ "type": "Feature", "properties": { "fid": 433, "name": "Genesis Nursery and Primary School", "amenity": "primary school", "operator:type": "private", "addr:city": "Church Zone", "source": "www.ubos.org", "osm_id": 4069198196, "osm_type": "nodes" }, "geometry": { "type": "Point", "coordinates": [ 33.2416608, 0.4635156 ] } },
{ "type": "Feature", "properties": { "fid": 434, "name": "Lake View Primary School", "amenity": "primary school", "operator:type": "private", "addr:city": "Commercial Cell", "source": "www.ubos.org", "osm_id": 4069198216, "osm_type": "nodes" }, "geometry": { "type": "Point", "coordinates": [ 33.2447003, 0.4643174 ] } },
{ "type": "Feature", "properties": { "fid": 436, "name": "Jinja Modern Secondary School", "amenity": "secondary school", "operator:type": "private", "addr:city": "Nalufenya A", "source": "www.ubos.org", "osm_id": 293999741, "osm_type": "nodes" }, "geometry": { "type": "Point", "coordinates": [ 33.204857, 0.4369849 ] } },
{ "type": "Feature", "properties": { "fid": 437, "name": "Kaderboy Islamic School", "amenity": "other", "operator:type": null, "addr:city": "Mvule", "source": "www.ubos.org", "osm_id": 4068203416, "osm_type": "nodes" }, "geometry": { "type": "Point", "coordinates": [ 33.2116336, 0.4372757 ] } },
{ "type": "Feature", "properties": { "fid": 438, "name": "Comboni Mission", "amenity": "other", "operator:type": null, "addr:city": "Rubaga", "source": "www.ubos.org", "osm_id": 4066445994, "osm_type": "nodes" }, "geometry": { "type": "Point", "coordinates": [ 33.2167661, 0.4467651 ] } },
{ "type": "Feature", "properties": { "fid": 439, "name": "Kirisa Fortitude Secondary School", "amenity": "secondary school", "operator:type": "private", "addr:city": "Kayunga", "source": "www.ubos.org", "osm_id": 4066446015, "osm_type": "nodes" }, "geometry": { "type": "Point", "coordinates": [ 33.2157054, 0.4763463 ] } },
{ "type": "Feature", "properties": { "fid": 440, "name": "YMCA Conference Centre", "amenity": "other", "operator:type": null, "addr:city": "Madhivani", "source": "www.ubos.org", "osm_id": 4066446045, "osm_type": "nodes" }, "geometry": { "type": "Point", "coordinates": [ 33.2014669, 0.4397824 ] } },
{ "type": "Feature", "properties": { "fid": 449, "name": "Monal High Secondary School", "amenity": "secondary school", "operator:type": "private", "addr:city": "Namizi Central", "source": "www.ubos.org", "osm_id": 4064231794, "osm_type": "nodes" }, "geometry": { "type": "Point", "coordinates": [ 33.1580854, 0.5203257 ] } },
{ "type": "Feature", "properties": { "fid": 450, "name": "Nakabango Secondary School", "amenity": "secondary school", "operator:type": null, "addr:city": "Nakabango", "source": "www.ubos.org", "osm_id": 4064337248, "osm_type": "nodes" }, "geometry": { "type": "Point", "coordinates": [ 33.2177319, 0.5107896 ] } },
{ "type": "Feature", "properties": { "fid": 456, "name": "Nawangoma Primary School", "amenity": "primary school", "operator:type": "public", "addr:city": "Nawangoma", "source": "www.ubos.org", "osm_id": 4036003587, "osm_type": "nodes" }, "geometry": { "type": "Point", "coordinates": [ 33.187596, 0.5382056 ] } },
{ "type": "Feature", "properties": { "fid": 458, "name": "Nursery School", "amenity": "kindergarten", "operator:type": null, "addr:city": null, "source": "www.ubos.org", "osm_id": 4036004594, "osm_type": "nodes" }, "geometry": { "type": "Point", "coordinates": [ 33.1683215, 0.5579487 ] } },
{ "type": "Feature", "properties": { "fid": 464, "name": "Saint Jude Primary School", "amenity": "primary school", "operator:type": "private", "addr:city": "Buwekula", "source": "www.ubos.org", "osm_id": 4069198242, "osm_type": "nodes" }, "geometry": { "type": "Point", "coordinates": [ 33.2263169, 0.4816811 ] } },
{ "type": "Feature", "properties": { "fid": 465, "name": "Rubaga Parents Primary School", "amenity": "primary school", "operator:type": "public", "addr:city": "Rubaga", "source": "www.ubos.org", "osm_id": 4066446032, "osm_type": "nodes" }, "geometry": { "type": "Point", "coordinates": [ 33.2126885, 0.4441349 ] } },
{ "type": "Feature", "properties": { "fid": 466, "name": "Tubalera Kawuma Vocational Training Centre", "amenity": "other", "operator:type": null, "addr:city": "Kamuli Road", "source": "www.ubos.org", "osm_id": 4066446041, "osm_type": "nodes" }, "geometry": { "type": "Point", "coordinates": [ 33.2177174, 0.4579829 ] } },
{ "type": "Feature", "properties": { "fid": 467, "name": "Buyara Parent Primary School", "amenity": "primary school", "operator:type": "private", "addr:city": "Ibungu East", "source": "www.ubos.org", "osm_id": 4064231792, "osm_type": "nodes" }, "geometry": { "type": "Point", "coordinates": [ 33.1539137, 0.5258628 ] } },
{ "type": "Feature", "properties": { "fid": 468, "name": "Raise Africa Primary School", "amenity": "primary school", "operator:type": "private", "addr:city": "Buwenda -central", "source": "www.ubos.org", "osm_id": 4064255140, "osm_type": "nodes" }, "geometry": { "type": "Point", "coordinates": [ 33.1749988, 0.4769574 ] } },
{ "type": "Feature", "properties": { "fid": 469, "name": "Saint Paulo Junior School", "amenity": "primary school", "operator:type": "private", "addr:city": "Namulesa", "source": "www.ubos.org", "osm_id": 4064337254, "osm_type": "nodes" }, "geometry": { "type": "Point", "coordinates": [ 33.2194461, 0.5028482 ] } },
{ "type": "Feature", "properties": { "fid": 470, "name": "River Side Academy", "amenity": "other", "operator:type": null, "addr:city": "Buwenda-mataala", "source": "www.ubos.org", "osm_id": 4064255141, "osm_type": "nodes" }, "geometry": { "type": "Point", "coordinates": [ 33.1733794, 0.4666647 ] } },
{ "type": "Feature", "properties": { "fid": 471, "name": "Saint Jude Primary School", "amenity": "primary school", "operator:type": "private", "addr:city": "Namulesa", "source": "www.ubos.org", "osm_id": 4064337251, "osm_type": "nodes" }, "geometry": { "type": "Point", "coordinates": [ 33.2185634, 0.5005085 ] } },
{ "type": "Feature", "properties": { "fid": 475, "name": "Buyala Parents' Primary School", "amenity": "primary school", "operator:type": null, "addr:city": "Budondo", "source": null, "osm_id": 4041952338, "osm_type": "nodes" }, "geometry": { "type": "Point", "coordinates": [ 33.1547354, 0.5309731 ] } },
{ "type": "Feature", "properties": { "fid": 484, "name": "Saint Mary Nsuube Primary School", "amenity": "primary school", "operator:type": "private", "addr:city": "Nsuube", "source": "www.ubos.org", "osm_id": 4036004618, "osm_type": "nodes" }, "geometry": { "type": "Point", "coordinates": [ 33.2191566, 0.5490773 ] } },
{ "type": "Feature", "properties": { "fid": 486, "name": "Twin Nursery School", "amenity": "kindergarten", "operator:type": "private", "addr:city": "Buwagi Central", "source": "www.ubos.org", "osm_id": 4036004629, "osm_type": "nodes" }, "geometry": { "type": "Point", "coordinates": [ 33.164444, 0.5419924 ] } },
{ "type": "Feature", "properties": { "fid": 487, "name": "International Institute Of Healthy Science", "amenity": "college", "operator:type": null, "addr:city": null, "source": null, "osm_id": 2872309874, "osm_type": "nodes" }, "geometry": { "type": "Point", "coordinates": [ 33.2185059, 0.451194 ] } }
]
}
