{
"type": "FeatureCollection",
"name": "jinja_health_data",
"crs": { "type": "name", "properties": { "name": "urn:ogc:def:crs:OGC:1.3:CRS84" } },
"features": [
{ "type": "Feature", "properties": { "fid": 1, "name": "Vunamba Health Centre II", "amenity": "clinic", "addr:city": "Budondo", "osm_id": 4041952372, "osm_type": "nodes", "admin4Name_en": "Budondo" }, "geometry": { "type": "Point", "coordinates": [ 33.1757944, 0.5000524 ] } },
{ "type": "Feature", "properties": { "fid": 2, "name": "HEALTH CENTRE II", "amenity": "clinic", "addr:city": null, "osm_id": 11056452049, "osm_type": "nodes", "admin4Name_en": "Budondo" }, "geometry": { "type": "Point", "coordinates": [ 33.1762713, 0.5003077 ] } },
{ "type": "Feature", "properties": { "fid": 3, "name": "IVUNAMBA", "amenity": "clinic", "addr:city": null, "osm_id": 11056452355, "osm_type": "nodes", "admin4Name_en": "Budondo" }, "geometry": { "type": "Point", "coordinates": [ 33.1694861, 0.5025606 ] } },
{ "type": "Feature", "properties": { "fid": 4, "name": "BUSEGA", "amenity": "clinic", "addr:city": null, "osm_id": 11056451938, "osm_type": "nodes", "admin4Name_en": "Budondo" }, "geometry": { "type": "Point", "coordinates": [ 33.1371329, 0.51625 ] } },
{ "type": "Feature", "properties": { "fid": 5, "name": "KIBIBI", "amenity": "clinic", "addr:city": null, "osm_id": 11056452378, "osm_type": "nodes", "admin4Name_en": "Budondo" }, "geometry": { "type": "Point", "coordinates": [ 33.1119604, 0.540434 ] } },
{ "type": "Feature", "properties": { "fid": 6, "name": "KIZINGA H/L", "amenity": "clinic", "addr:city": null, "osm_id": 11056451822, "osm_type": "nodes", "admin4Name_en": "Budondo" }, "geometry": { "type": "Point", "coordinates": [ 33.1342845, 0.5438806 ] } },
{ "type": "Feature", "properties": { "fid": 7, "name": "KYOMYA H/L II", "amenity": "clinic", "addr:city": null, "osm_id": 11056452239, "osm_type": "nodes", "admin4Name_en": "Budondo" }, "geometry": { "type": "Point", "coordinates": [ 33.1754907, 0.5478151 ] } },
{ "type": "Feature", "properties": { "fid": 8, "name": "Lukolo Health Centre iii", "amenity": "clinic", "addr:city": "Budondo", "osm_id": 4041952358, "osm_type": "nodes", "admin4Name_en": "Budondo" }, "geometry": { "type": "Point", "coordinates": [ 33.1843212, 0.5607935 ] } },
{ "type": "Feature", "properties": { "fid": 9, "name": "LUKOLO", "amenity": "clinic", "addr:city": null, "osm_id": 11056452093, "osm_type": "nodes", "admin4Name_en": "Budondo" }, "geometry": { "type": "Point", "coordinates": [ 33.1872464, 0.5628694 ] } },
{ "type": "Feature", "properties": { "fid": 10, "name": "LUKOLO H/L III", "amenity": "hospital", "addr:city": null, "osm_id": 11056451970, "osm_type": "nodes", "admin4Name_en": "Budondo" }, "geometry": { "type": "Point", "coordinates": [ 33.1882771, 0.5634736 ] } },
{ "type": "Feature", "properties": { "fid": 11, "name": "NAWANGOMA H/C II", "amenity": "clinic", "addr:city": null, "osm_id": 11056452166, "osm_type": "nodes", "admin4Name_en": "Budondo" }, "geometry": { "type": "Point", "coordinates": [ 33.1856637, 0.5325972 ] } },
{ "type": "Feature", "properties": { "fid": 12, "name": "Itanda Falls Modern Clinic", "amenity": "clinic", "addr:city": "Budondo", "osm_id": 4041952344, "osm_type": "nodes", "admin4Name_en": "Budondo" }, "geometry": { "type": "Point", "coordinates": [ 33.1534057, 0.5258373 ] } },
{ "type": "Feature", "properties": { "fid": 13, "name": "Divine Clinic", "amenity": "clinic", "addr:city": "Budondo", "osm_id": 4041952340, "osm_type": "nodes", "admin4Name_en": "Budondo" }, "geometry": { "type": "Point", "coordinates": [ 33.1545038, 0.5227597 ] } },
{ "type": "Feature", "properties": { "fid": 14, "name": "Life Medical Clinic", "amenity": "clinic", "addr:city": "Bugembe", "osm_id": 4041781326, "osm_type": "nodes", "admin4Name_en": "Bugembe Town Council" }, "geometry": { "type": "Point", "coordinates": [ 33.2292692, 0.463712 ] } },
{ "type": "Feature", "properties": { "fid": 15, "name": "BUGEMBE HC IV", "amenity": "clinic", "addr:city": null, "osm_id": 11056452406, "osm_type": "nodes", "admin4Name_en": "Bugembe Town Council" }, "geometry": { "type": "Point", "coordinates": [ 33.2335806, 0.464343 ] } },
{ "type": "Feature", "properties": { "fid": 16, "name": "BUGEMBE", "amenity": "clinic", "addr:city": null, "osm_id": 11056451976, "osm_type": "nodes", "admin4Name_en": "Bugembe Town Council" }, "geometry": { "type": "Point", "coordinates": [ 33.2372383, 0.46437 ] } },
{ "type": "Feature", "properties": { "fid": 18, "name": "Getwell Medical Care", "amenity": "clinic", "addr:city": "Bugembe", "osm_id": 4041781317, "osm_type": "nodes", "admin4Name_en": "Bugembe Town Council" }, "geometry": { "type": "Point", "coordinates": [ 33.2294066, 0.4647565 ] } },
{ "type": "Feature", "properties": { "fid": 19, "name": null, "amenity": "pharmacy", "addr:city": "Bugembe", "osm_id": 4041781353, "osm_type": "nodes", "admin4Name_en": "Bugembe Town Council" }, "geometry": { "type": "Point", "coordinates": [ 33.2291701, 0.4648566 ] } },
{ "type": "Feature", "properties": { "fid": 20, "name": null, "amenity": "pharmacy", "addr:city": "Bugembe Town Council", "osm_id": 4043797824, "osm_type": "nodes", "admin4Name_en": "Bugembe Town Council" }, "geometry": { "type": "Point", "coordinates": [ 33.2291975, 0.4648675 ] } },
{ "type": "Feature", "properties": { "fid": 21, "name": "Mastered Seed Health Centre", "amenity": "clinic", "addr:city": "Bugembe Town Council", "osm_id": 4043797800, "osm_type": "nodes", "admin4Name_en": "Bugembe Town Council" }, "geometry": { "type": "Point", "coordinates": [ 33.2314911, 0.4656653 ] } },
{ "type": "Feature", "properties": { "fid": 23, "name": "Soki Pharmacy", "amenity": "pharmacy", "addr:city": "Bugembe", "osm_id": 4041781338, "osm_type": "nodes", "admin4Name_en": "Bugembe Town Council" }, "geometry": { "type": "Point", "coordinates": [ 33.238353, 0.4665516 ] } },
{ "type": "Feature", "properties": { "fid": 25, "name": "Cure Health Centre", "amenity": "clinic", "addr:city": "Bugembe", "osm_id": 4041781312, "osm_type": "nodes", "admin4Name_en": "Bugembe Town Council" }, "geometry": { "type": "Point", "coordinates": [ 33.2377425, 0.4668634 ] } },
{ "type": "Feature", "properties": { "fid": 26, "name": "Destiny Medical Centre", "amenity": "clinic", "addr:city": "Bugembe Town Council", "osm_id": 4043791884, "osm_type": "nodes", "admin4Name_en": "Bugembe Town Council" }, "geometry": { "type": "Point", "coordinates": [ 33.2435648, 0.4679883 ] } },
{ "type": "Feature", "properties": { "fid": 27, "name": "BUGEMBE RURAL HEALTH CENTRE", "amenity": "clinic", "addr:city": null, "osm_id": 11056452145, "osm_type": "nodes", "admin4Name_en": "Bugembe Town Council" }, "geometry": { "type": "Point", "coordinates": [ 33.2290512, 0.4680978 ] } },
{ "type": "Feature", "properties": { "fid": 28, "name": "Sure Faith Medicare", "amenity": "clinic", "addr:city": "Bugembe", "osm_id": 4041781340, "osm_type": "nodes", "admin4Name_en": "Bugembe Town Council" }, "geometry": { "type": "Point", "coordinates": [ 33.2423742, 0.4687844 ] } },
{ "type": "Feature", "properties": { "fid": 30, "name": "Grace Pharmacy", "amenity": "clinic", "addr:city": "Bugembe Town Council", "osm_id": 4043797790, "osm_type": "nodes", "admin4Name_en": "Bugembe Town Council" }, "geometry": { "type": "Point", "coordinates": [ 33.2290169, 0.470534 ] } },
{ "type": "Feature", "properties": { "fid": 31, "name": "KATENDE", "amenity": "clinic", "addr:city": null, "osm_id": 11056451880, "osm_type": "nodes", "admin4Name_en": "Bugembe Town Council" }, "geometry": { "type": "Point", "coordinates": [ 33.2320172, 0.4748379 ] } },
{ "type": "Feature", "properties": { "fid": 32, "name": "Bugonzi Medical Clinic", "amenity": "clinic", "addr:city": "Bugembe Town Council", "osm_id": 4043791880, "osm_type": "nodes", "admin4Name_en": "Bugembe Town Council" }, "geometry": { "type": "Point", "coordinates": [ 33.2289117, 0.4682455 ] } },
{ "type": "Feature", "properties": { "fid": 33, "name": "JINJA INTERNATIONAL CLINIC CENTRE", "amenity": "clinic", "addr:city": null, "osm_id": 11056452108, "osm_type": "nodes", "admin4Name_en": "Central Division" }, "geometry": { "type": "Point", "coordinates": [ 33.2089279, 0.419605 ] } },
{ "type": "Feature", "properties": { "fid": 34, "name": "KIRINYA", "amenity": "clinic", "addr:city": null, "osm_id": 11056451980, "osm_type": "nodes", "admin4Name_en": "Central Division" }, "geometry": { "type": "Point", "coordinates": [ 33.2259133, 0.4198578 ] } },
{ "type": "Feature", "properties": { "fid": 35, "name": "IMC Jinja", "amenity": "clinic", "addr:city": null, "osm_id": 1014802537, "osm_type": "nodes", "admin4Name_en": "Central Division" }, "geometry": { "type": "Point", "coordinates": [ 33.2089993, 0.4201566 ] } },
{ "type": "Feature", "properties": { "fid": 36, "name": "DMO CLINIC", "amenity": "clinic", "addr:city": null, "osm_id": 11056452117, "osm_type": "nodes", "admin4Name_en": "Central Division" }, "geometry": { "type": "Point", "coordinates": [ 33.2042098, 0.420546 ] } },
{ "type": "Feature", "properties": { "fid": 37, "name": "DIRECTORATE OF HEALTH SERVICES (DOM)", "amenity": "clinic", "addr:city": null, "osm_id": 11056452338, "osm_type": "nodes", "admin4Name_en": "Central Division" }, "geometry": { "type": "Point", "coordinates": [ 33.2048748, 0.4205641 ] } },
{ "type": "Feature", "properties": { "fid": 38, "name": "SOURCE OF THE NILE", "amenity": "clinic", "addr:city": null, "osm_id": 11056451864, "osm_type": "nodes", "admin4Name_en": "Central Division" }, "geometry": { "type": "Point", "coordinates": [ 33.1968046, 0.4209262 ] } },
{ "type": "Feature", "properties": { "fid": 39, "name": "JINJA DIVISION CENTRAL CLINIC", "amenity": "clinic", "addr:city": null, "osm_id": 11056452369, "osm_type": "nodes", "admin4Name_en": "Central Division" }, "geometry": { "type": "Point", "coordinates": [ 33.2086943, 0.4212787 ] } },
{ "type": "Feature", "properties": { "fid": 40, "name": "JINJA CENTRAL", "amenity": "clinic", "addr:city": null, "osm_id": 11056452436, "osm_type": "nodes", "admin4Name_en": "Central Division" }, "geometry": { "type": "Point", "coordinates": [ 33.2084517, 0.4214416 ] } },
{ "type": "Feature", "properties": { "fid": 41, "name": "UGANDA PHARMACUTICALS LTD", "amenity": "clinic", "addr:city": null, "osm_id": 11056451835, "osm_type": "nodes", "admin4Name_en": "Central Division" }, "geometry": { "type": "Point", "coordinates": [ 33.2092514, 0.4220953 ] } },
{ "type": "Feature", "properties": { "fid": 42, "name": "Marie Stopes Uganda", "amenity": "clinic", "addr:city": "Jinja Central Division", "osm_id": 4040029223, "osm_type": "nodes", "admin4Name_en": "Central Division" }, "geometry": { "type": "Point", "coordinates": [ 33.2090733, 0.424404 ] } },
{ "type": "Feature", "properties": { "fid": 43, "name": "Green's Pharmacy", "amenity": "pharmacy", "addr:city": null, "osm_id": 3393071090, "osm_type": "nodes", "admin4Name_en": "Central Division" }, "geometry": { "type": "Point", "coordinates": [ 33.2073952, 0.4247172 ] } },
{ "type": "Feature", "properties": { "fid": 44, "name": "AIDS INFORMATION CENTRE B", "amenity": "clinic", "addr:city": null, "osm_id": 11056452353, "osm_type": "nodes", "admin4Name_en": "Central Division" }, "geometry": { "type": "Point", "coordinates": [ 33.2038325, 0.425124 ] } },
{ "type": "Feature", "properties": { "fid": 45, "name": "ALSHAFA MEDICAL CENTRE", "amenity": "clinic", "addr:city": null, "osm_id": 11056452160, "osm_type": "nodes", "admin4Name_en": "Central Division" }, "geometry": { "type": "Point", "coordinates": [ 33.210384, 0.4266437 ] } },
{ "type": "Feature", "properties": { "fid": 46, "name": "Victoria Clinic", "amenity": "hospital", "addr:city": null, "osm_id": 1322227678, "osm_type": "nodes", "admin4Name_en": "Central Division" }, "geometry": { "type": "Point", "coordinates": [ 33.2087981, 0.4272364 ] } },
{ "type": "Feature", "properties": { "fid": 47, "name": "JINJA ISLAMIC HEALTH CENTRE", "amenity": "clinic", "addr:city": null, "osm_id": 11056452461, "osm_type": "nodes", "admin4Name_en": "Central Division" }, "geometry": { "type": "Point", "coordinates": [ 33.2076207, 0.4277234 ] } },
{ "type": "Feature", "properties": { "fid": 48, "name": "Medicare-Jinja", "amenity": "clinic", "addr:city": "Jinja Central Division", "osm_id": 4038263115, "osm_type": "nodes", "admin4Name_en": "Central Division" }, "geometry": { "type": "Point", "coordinates": [ 33.2097638, 0.4296158 ] } },
{ "type": "Feature", "properties": { "fid": 49, "name": "Marathon Pharmacy", "amenity": "pharmacy", "addr:city": "Jinja", "osm_id": 4041833894, "osm_type": "nodes", "admin4Name_en": "Central Division" }, "geometry": { "type": "Point", "coordinates": [ 33.2119489, 0.4298361 ] } },
{ "type": "Feature", "properties": { "fid": 50, "name": "Gilead Pharmacy", "amenity": "pharmacy", "addr:city": "Jinja Central Division", "osm_id": 4038300544, "osm_type": "nodes", "admin4Name_en": "Central Division" }, "geometry": { "type": "Point", "coordinates": [ 33.2102061, 0.4298701 ] } },
{ "type": "Feature", "properties": { "fid": 52, "name": "Mugabi Pharmacy LTD", "amenity": "pharmacy", "addr:city": "Jinja", "osm_id": 4041833897, "osm_type": "nodes", "admin4Name_en": "Central Division" }, "geometry": { "type": "Point", "coordinates": [ 33.2123566, 0.4304261 ] } },
{ "type": "Feature", "properties": { "fid": 53, "name": "Gayatri Pharmacy", "amenity": "pharmacy", "addr:city": "Jinja Central Division", "osm_id": 4043422955, "osm_type": "nodes", "admin4Name_en": "Central Division" }, "geometry": { "type": "Point", "coordinates": [ 33.2131363, 0.4304551 ] } },
{ "type": "Feature", "properties": { "fid": 56, "name": "Health Care Ltd", "amenity": "pharmacy", "addr:city": "Jinja Central Division", "osm_id": 4043422961, "osm_type": "nodes", "admin4Name_en": "Central Division" }, "geometry": { "type": "Point", "coordinates": [ 33.2117663, 0.4313018 ] } },
{ "type": "Feature", "properties": { "fid": 57, "name": "Medven Pharmacy", "amenity": "pharmacy", "addr:city": "Jinja", "osm_id": 3176668043, "osm_type": "nodes", "admin4Name_en": "Central Division" }, "geometry": { "type": "Point", "coordinates": [ 33.2110565, 0.4314205 ] } },
{ "type": "Feature", "properties": { "fid": 58, "name": null, "amenity": "pharmacy", "addr:city": null, "osm_id": 3393076521, "osm_type": "nodes", "admin4Name_en": "Central Division" }, "geometry": { "type": "Point", "coordinates": [ 33.2092398, 0.431482 ] } },
{ "type": "Feature", "properties": { "fid": 59, "name": "International Medical Centre", "amenity": "clinic", "addr:city": "Jinja Central Division", "osm_id": 4041584276, "osm_type": "nodes", "admin4Name_en": "Central Division" }, "geometry": { "type": "Point", "coordinates": [ 33.2087729, 0.4317325 ] } },
{ "type": "Feature", "properties": { "fid": 60, "name": null, "amenity": "clinic", "addr:city": null, "osm_id": 3393076524, "osm_type": "nodes", "admin4Name_en": "Central Division" }, "geometry": { "type": "Point", "coordinates": [ 33.2080538, 0.4320546 ] } },
{ "type": "Feature", "properties": { "fid": 61, "name": "Biogen Pharmacy LTD", "amenity": "pharmacy", "addr:city": "Jinja", "osm_id": 4041828082, "osm_type": "nodes", "admin4Name_en": "Central Division" }, "geometry": { "type": "Point", "coordinates": [ 33.2113051, 0.4320998 ] } },
{ "type": "Feature", "properties": { "fid": 62, "name": "Healing River Pharmacy", "amenity": "pharmacy", "addr:city": "Jinja", "osm_id": 4041828088, "osm_type": "nodes", "admin4Name_en": "Central Division" }, "geometry": { "type": "Point", "coordinates": [ 33.2118416, 0.4325933 ] } },
{ "type": "Feature", "properties": { "fid": 63, "name": "Medvin Pharmacy Ltd", "amenity": "pharmacy", "addr:city": "Jinja", "osm_id": 4041833895, "osm_type": "nodes", "admin4Name_en": "Central Division" }, "geometry": { "type": "Point", "coordinates": [ 33.2109833, 0.4314668 ] } },
{ "type": "Feature", "properties": { "fid": 64, "name": "Family Hope Center", "amenity": "hospital", "addr:city": null, "osm_id": 9787649917, "osm_type": "nodes", "admin4Name_en": "Central Division" }, "geometry": { "type": "Point", "coordinates": [ 33.204248, 0.4290991 ] } },
{ "type": "Feature", "properties": { "fid": 65, "name": "NILE MEDICAL CENTRE", "amenity": "clinic", "addr:city": null, "osm_id": 11056451900, "osm_type": "nodes", "admin4Name_en": "Central Division" }, "geometry": { "type": "Point", "coordinates": [ 33.2034641, 0.4302176 ] } },
{ "type": "Feature", "properties": { "fid": 66, "name": "TASO", "amenity": "hospital", "addr:city": null, "osm_id": 11056451941, "osm_type": "nodes", "admin4Name_en": "Central Division" }, "geometry": { "type": "Point", "coordinates": [ 33.2041023, 0.432018 ] } },
{ "type": "Feature", "properties": { "fid": 67, "name": "JINJA REFERAL HOSPITAL", "amenity": "clinic", "addr:city": null, "osm_id": 11056452204, "osm_type": "nodes", "admin4Name_en": "Central Division" }, "geometry": { "type": "Point", "coordinates": [ 33.2043808, 0.4301542 ] } },
{ "type": "Feature", "properties": { "fid": 68, "name": "VITHI MEDICAL CENTRE", "amenity": "hospital", "addr:city": null, "osm_id": 11056452311, "osm_type": "nodes", "admin4Name_en": "Central Division" }, "geometry": { "type": "Point", "coordinates": [ 33.2085328, 0.4320721 ] } },
{ "type": "Feature", "properties": { "fid": 69, "name": "JOINT MEDICAL RESEARCH CENTRE SERVICE", "amenity": "clinic", "addr:city": null, "osm_id": 11056452344, "osm_type": "nodes", "admin4Name_en": "Central Division" }, "geometry": { "type": "Point", "coordinates": [ 33.2076153, 0.4319797 ] } },
{ "type": "Feature", "properties": { "fid": 70, "name": "NATIONAL DRUG AUTHORITY", "amenity": "clinic", "addr:city": null, "osm_id": 11056452423, "osm_type": "nodes", "admin4Name_en": "Central Division" }, "geometry": { "type": "Point", "coordinates": [ 33.2089462, 0.4307784 ] } },
{ "type": "Feature", "properties": { "fid": 71, "name": "JINJA", "amenity": "clinic", "addr:city": null, "osm_id": 11056452446, "osm_type": "nodes", "admin4Name_en": "Central Division" }, "geometry": { "type": "Point", "coordinates": [ 33.2040573, 0.4299009 ] } },
{ "type": "Feature", "properties": { "fid": 72, "name": "Jinja Dental Clinic", "amenity": "clinic", "addr:city": "Jinja", "osm_id": 4041833889, "osm_type": "nodes", "admin4Name_en": "Central Division" }, "geometry": { "type": "Point", "coordinates": [ 33.2116701, 0.4292783 ] } },
{ "type": "Feature", "properties": { "fid": 73, "name": "Wefeeko Medical Clinic", "amenity": "clinic", "addr:city": "Jinja", "osm_id": 4041833908, "osm_type": "nodes", "admin4Name_en": "Central Division" }, "geometry": { "type": "Point", "coordinates": [ 33.2117349, 0.4290354 ] } },
{ "type": "Feature", "properties": { "fid": 74, "name": "Jinja Clinic", "amenity": "clinic", "addr:city": "Jinja Central Division", "osm_id": 4038300547, "osm_type": "nodes", "admin4Name_en": "Central Division" }, "geometry": { "type": "Point", "coordinates": [ 33.2090098, 0.431588 ] } },
{ "type": "Feature", "properties": { "fid": 75, "name": "Lister Pharmaceuticals Ltd", "amenity": "pharmacy", "addr:city": "Jinja", "osm_id": 4040404303, "osm_type": "nodes", "admin4Name_en": "Central Division" }, "geometry": { "type": "Point", "coordinates": [ 33.2129644, 0.4331076 ] } },
{ "type": "Feature", "properties": { "fid": 76, "name": "Krystal Children's Medical Centre", "amenity": "clinic", "addr:city": "Jinja Central Division", "osm_id": 4040429581, "osm_type": "nodes", "admin4Name_en": "Central Division" }, "geometry": { "type": "Point", "coordinates": [ 33.2064573, 0.4331498 ] } },
{ "type": "Feature", "properties": { "fid": 77, "name": "Lentan Pharmacy", "amenity": "pharmacy", "addr:city": "Jinja", "osm_id": 4040404302, "osm_type": "nodes", "admin4Name_en": "Central Division" }, "geometry": { "type": "Point", "coordinates": [ 33.212639, 0.4333507 ] } },
{ "type": "Feature", "properties": { "fid": 78, "name": "Modern Dental Clinic", "amenity": "clinic", "addr:city": "Jinja", "osm_id": 4040404306, "osm_type": "nodes", "admin4Name_en": "Central Division" }, "geometry": { "type": "Point", "coordinates": [ 33.2124536, 0.4334584 ] } },
{ "type": "Feature", "properties": { "fid": 79, "name": "Medical Clinic", "amenity": "hospital", "addr:city": null, "osm_id": 3087233815, "osm_type": "nodes", "admin4Name_en": "Central Division" }, "geometry": { "type": "Point", "coordinates": [ 33.2122075, 0.4335756 ] } },
{ "type": "Feature", "properties": { "fid": 80, "name": "Go Pharmacy", "amenity": "pharmacy", "addr:city": "Jinja Central Division", "osm_id": 4040429576, "osm_type": "nodes", "admin4Name_en": "Central Division" }, "geometry": { "type": "Point", "coordinates": [ 33.2122134, 0.4345327 ] } },
{ "type": "Feature", "properties": { "fid": 81, "name": "D'ACE Medicare", "amenity": "clinic", "addr:city": "Jinja Central Division", "osm_id": 4040429573, "osm_type": "nodes", "admin4Name_en": "Central Division" }, "geometry": { "type": "Point", "coordinates": [ 33.211748, 0.4356992 ] } },
{ "type": "Feature", "properties": { "fid": 82, "name": "Lentan pharmacy", "amenity": "pharmacy", "addr:city": "Jinja Central Division", "osm_id": 4043422968, "osm_type": "nodes", "admin4Name_en": "Central Division" }, "geometry": { "type": "Point", "coordinates": [ 33.2125129, 0.4333507 ] } },
{ "type": "Feature", "properties": { "fid": 83, "name": "Lister Pharmaceuticals Ltd", "amenity": "pharmacy", "addr:city": "Jinja Central Division", "osm_id": 4043422969, "osm_type": "nodes", "admin4Name_en": "Central Division" }, "geometry": { "type": "Point", "coordinates": [ 33.2129644, 0.4331076 ] } },
{ "type": "Feature", "properties": { "fid": 84, "name": "CHILDREN UNIT REFERAL HOSPITAL", "amenity": "clinic", "addr:city": null, "osm_id": 11056451842, "osm_type": "nodes", "admin4Name_en": "Central Division" }, "geometry": { "type": "Point", "coordinates": [ 33.2015958, 0.4377165 ] } },
{ "type": "Feature", "properties": { "fid": 85, "name": "ISLAMIC MEDICALCENTRE MVULE CRESCENT", "amenity": "clinic", "addr:city": null, "osm_id": 11056451952, "osm_type": "nodes", "admin4Name_en": "Central Division" }, "geometry": { "type": "Point", "coordinates": [ 33.2111482, 0.4379257 ] } },
{ "type": "Feature", "properties": { "fid": 86, "name": "HOPE MEMORIAL", "amenity": "hospital", "addr:city": null, "osm_id": 11056452096, "osm_type": "nodes", "admin4Name_en": "Central Division" }, "geometry": { "type": "Point", "coordinates": [ 33.2017541, 0.4378967 ] } },
{ "type": "Feature", "properties": { "fid": 87, "name": "MVULE CRESCENT", "amenity": "hospital", "addr:city": null, "osm_id": 11056452209, "osm_type": "nodes", "admin4Name_en": "Central Division" }, "geometry": { "type": "Point", "coordinates": [ 33.2114178, 0.4380433 ] } },
{ "type": "Feature", "properties": { "fid": 88, "name": "Jinja Medical Clinc", "amenity": "clinic", "addr:city": "Jinja", "osm_id": 4041833890, "osm_type": "nodes", "admin4Name_en": "Central Division" }, "geometry": { "type": "Point", "coordinates": [ 33.2120804, 0.4335693 ] } },
{ "type": "Feature", "properties": { "fid": 89, "name": "HEALTH CENTRE II", "amenity": "clinic", "addr:city": null, "osm_id": 11056451967, "osm_type": "nodes", "admin4Name_en": "Mafubira" }, "geometry": { "type": "Point", "coordinates": [ 33.1733409, 0.477789 ] } },
{ "type": "Feature", "properties": { "fid": 90, "name": "HEALTH CENTRE III", "amenity": "clinic", "addr:city": null, "osm_id": 11056451903, "osm_type": "nodes", "admin4Name_en": "Mafubira" }, "geometry": { "type": "Point", "coordinates": [ 33.2194718, 0.4911143 ] } },
{ "type": "Feature", "properties": { "fid": 91, "name": "WAKITAKA", "amenity": "clinic", "addr:city": null, "osm_id": 11056452072, "osm_type": "nodes", "admin4Name_en": "Mafubira" }, "geometry": { "type": "Point", "coordinates": [ 33.2195168, 0.4914672 ] } },
{ "type": "Feature", "properties": { "fid": 92, "name": "MUSIMA HEALTH CENTRE II", "amenity": "clinic", "addr:city": null, "osm_id": 11056452174, "osm_type": "nodes", "admin4Name_en": "Mafubira" }, "geometry": { "type": "Point", "coordinates": [ 33.2490663, 0.4960712 ] } },
{ "type": "Feature", "properties": { "fid": 93, "name": "LWANDA", "amenity": "clinic", "addr:city": null, "osm_id": 11056451813, "osm_type": "nodes", "admin4Name_en": "Mafubira" }, "geometry": { "type": "Point", "coordinates": [ 33.2215221, 0.5281538 ] } },
{ "type": "Feature", "properties": { "fid": 94, "name": "BUWENDA", "amenity": "clinic", "addr:city": null, "osm_id": 11056452213, "osm_type": "nodes", "admin4Name_en": "Mafubira" }, "geometry": { "type": "Point", "coordinates": [ 33.1727837, 0.4769567 ] } },
{ "type": "Feature", "properties": { "fid": 95, "name": "HEALTH CENTRE II", "amenity": "clinic", "addr:city": null, "osm_id": 11056452383, "osm_type": "nodes", "admin4Name_en": "Mafubira" }, "geometry": { "type": "Point", "coordinates": [ 33.2108167, 0.4733186 ] } },
{ "type": "Feature", "properties": { "fid": 96, "name": "MAFUBIRA", "amenity": "clinic", "addr:city": null, "osm_id": 11056452334, "osm_type": "nodes", "admin4Name_en": "Mafubira" }, "geometry": { "type": "Point", "coordinates": [ 33.2116346, 0.4737167 ] } },
{ "type": "Feature", "properties": { "fid": 97, "name": "Jinja Nile Medical Center", "amenity": "clinic", "addr:city": "Kimaka/Mpumudde/Nalufenya Division", "osm_id": 4040033255, "osm_type": "nodes", "admin4Name_en": "Masese Walukuba" }, "geometry": { "type": "Point", "coordinates": [ 33.2029296, 0.4299122 ] } },
{ "type": "Feature", "properties": { "fid": 98, "name": "PARTNERS' HOUSE", "amenity": "clinic", "addr:city": null, "osm_id": 11056452380, "osm_type": "nodes", "admin4Name_en": "Masese Walukuba" }, "geometry": { "type": "Point", "coordinates": [ 33.2030867, 0.4317828 ] } },
{ "type": "Feature", "properties": { "fid": 99, "name": "Kamu Medical Centre", "amenity": "clinic", "addr:city": "Kimaka/Mpumudde/Nalufenya Division", "osm_id": 4040026310, "osm_type": "nodes", "admin4Name_en": "Masese Walukuba" }, "geometry": { "type": "Point", "coordinates": [ 33.1952764, 0.4387968 ] } },
{ "type": "Feature", "properties": { "fid": 100, "name": "Bridge International Hospital", "amenity": "hospital", "addr:city": null, "osm_id": 8457174017, "osm_type": "nodes", "admin4Name_en": "Masese Walukuba" }, "geometry": { "type": "Point", "coordinates": [ 33.1911611, 0.439849 ] } },
{ "type": "Feature", "properties": { "fid": 101, "name": null, "amenity": "clinic", "addr:city": null, "osm_id": 4396987892, "osm_type": "nodes", "admin4Name_en": "Masese Walukuba" }, "geometry": { "type": "Point", "coordinates": [ 33.1960819, 0.4381351 ] } },
{ "type": "Feature", "properties": { "fid": 103, "name": "RANA MEDICAL CENTRE", "amenity": "clinic", "addr:city": null, "osm_id": 11056452119, "osm_type": "nodes", "admin4Name_en": "Masese Walukuba" }, "geometry": { "type": "Point", "coordinates": [ 33.2007084, 0.4349839 ] } },
{ "type": "Feature", "properties": { "fid": 104, "name": "ISLAMIC HEALTH CENTRE", "amenity": "clinic", "addr:city": null, "osm_id": 11056452223, "osm_type": "nodes", "admin4Name_en": "Masese Walukuba" }, "geometry": { "type": "Point", "coordinates": [ 33.1983057, 0.4351123 ] } },
{ "type": "Feature", "properties": { "fid": 105, "name": "FAMILY LIFE EDUCATION PROGRAM", "amenity": "clinic", "addr:city": null, "osm_id": 11056452295, "osm_type": "nodes", "admin4Name_en": "Masese Walukuba" }, "geometry": { "type": "Point", "coordinates": [ 33.2034642, 0.4337189 ] } },
{ "type": "Feature", "properties": { "fid": 106, "name": "TOWN YARD", "amenity": "clinic", "addr:city": null, "osm_id": 11056452031, "osm_type": "nodes", "admin4Name_en": "Mpumudde Division" }, "geometry": { "type": "Point", "coordinates": [ 33.2207011, 0.4292762 ] } },
{ "type": "Feature", "properties": { "fid": 107, "name": "MPUMUDDE HEALTH CENTRE IV", "amenity": "clinic", "addr:city": null, "osm_id": 11056452219, "osm_type": "nodes", "admin4Name_en": "Mpumudde Division" }, "geometry": { "type": "Point", "coordinates": [ 33.2123261, 0.4598472 ] } },
{ "type": "Feature", "properties": { "fid": 108, "name": "COMMUNITY SUPPORT CENTRE", "amenity": "clinic", "addr:city": null, "osm_id": 11056452196, "osm_type": "nodes", "admin4Name_en": "Mpumudde Division" }, "geometry": { "type": "Point", "coordinates": [ 33.2139034, 0.4643256 ] } },
{ "type": "Feature", "properties": { "fid": 109, "name": "MASESE PORT", "amenity": "clinic", "addr:city": null, "osm_id": 11056452454, "osm_type": "nodes", "admin4Name_en": "Mpumudde Division" }, "geometry": { "type": "Point", "coordinates": [ 33.2404008, 0.4374091 ] } },
{ "type": "Feature", "properties": { "fid": 110, "name": "WALUKUBA HEALTH CENTRE IV", "amenity": "hospital", "addr:city": null, "osm_id": 11056452047, "osm_type": "nodes", "admin4Name_en": "Mpumudde Division" }, "geometry": { "type": "Point", "coordinates": [ 33.2250548, 0.4379048 ] } },
{ "type": "Feature", "properties": { "fid": 111, "name": "WALUKUBA", "amenity": "clinic", "addr:city": null, "osm_id": 11056452394, "osm_type": "nodes", "admin4Name_en": "Mpumudde Division" }, "geometry": { "type": "Point", "coordinates": [ 33.2248713, 0.4385224 ] } },
{ "type": "Feature", "properties": { "fid": 112, "name": null, "amenity": "pharmacy", "addr:city": "Walukuba", "osm_id": 4039858957, "osm_type": "nodes", "admin4Name_en": "Mpumudde Division" }, "geometry": { "type": "Point", "coordinates": [ 33.2279348, 0.4487751 ] } },
{ "type": "Feature", "properties": { "fid": 113, "name": "GADAFFI BARRACKS", "amenity": "hospital", "addr:city": null, "osm_id": 11056438784, "osm_type": "nodes", "admin4Name_en": "Mpumudde Division" }, "geometry": { "type": "Point", "coordinates": [ 33.2038062, 0.449814 ] } },
{ "type": "Feature", "properties": { "fid": 114, "name": "KIMAKA HEALTH CENTRE 11", "amenity": "clinic", "addr:city": null, "osm_id": 11056451872, "osm_type": "nodes", "admin4Name_en": "Mpumudde Division" }, "geometry": { "type": "Point", "coordinates": [ 33.1907122, 0.4525285 ] } },
{ "type": "Feature", "properties": { "fid": 115, "name": "Subi Drug Shop", "amenity": "clinic", "addr:city": "Jinja", "osm_id": 4041967763, "osm_type": "nodes", "admin4Name_en": "Mpumudde Division" }, "geometry": { "type": "Point", "coordinates": [ 33.2189853, 0.4535154 ] } }
]
}
